{"type":"FeatureCollection","features":[{"type":"Feature","geometry":{"type":"Polygon","coordinates":[[[33.94542404148148,-1.5285976501508798],[33.94545968984167,-1.5286467274242643],[33.945535495735825,-1.5287314608174984],[33.94564252572442,-1.528802787499359],[33.945740622257745,-1.5288474086405075],[33.945843142807135,-1.5288741632441873],[33.94605720194184,-1.5288697025587756],[33.946155298031876,-1.5288830726943485],[33.946382713802535,-1.5289142548600319],[33.9464853187132,-1.528963303138338],[33.946610129009585,-1.5290123849760968],[33.946806319902564,-1.5290079358685202],[33.94694014805506,-1.5290168350038629],[33.947154119552614,-1.5290123753800582],[33.94721214275143,-1.5290391254885076],[33.947207633618525,-1.5291015840545954],[33.94718091912848,-1.5291684559031329],[33.947154119552614,-1.529221927456796],[33.94714527143695,-1.5292575985458876],[33.947238857232406,-1.5292709873811583],[33.94728343806866,-1.5292843916270922],[33.94731466165673,-1.529155060900672],[33.947386041972116,-1.5291283339613517],[33.9475599408632,-1.5291149590598547],[33.94767139252322,-1.5290881920347983],[33.94777399599282,-1.5290123616106657],[33.9478275096972,-1.528891958093257],[33.947863157123656,-1.528820603792376],[33.94800140775155,-1.528784957053927],[33.94807270245546,-1.528740384080483],[33.94828675638879,-1.528704673643409],[33.94847401063236,-1.528784932951336],[33.94845622957795,-1.528700210643292],[33.948389359170214,-1.5286199517415104],[33.94828675638879,-1.5285218685901594],[33.948224309863654,-1.5283479668139746],[33.948148506190876,-1.528383664916756],[33.94806827844204,-1.5284148724081068],[33.9480058317682,-1.5284728109879298],[33.9479478941486,-1.528486202665119],[33.94790331363519,-1.528428208837216],[33.94787209024744,-1.528347989339573],[33.94783635774706,-1.5282543258524086],[33.94773826345424,-1.5282543571560172],[33.94765361131325,-1.5282989219860332],[33.9475866552429,-1.528303396894162],[33.94748413664151,-1.5281205794630535],[33.947443979946506,-1.5279555414672787],[33.94732801888326,-1.5279154415354574],[33.947176409994036,-1.527942185743321],[33.94702930999619,-1.5278975802136383],[33.94702930999619,-1.5277682589763124],[33.947060533670744,-1.5276746298149098],[33.94696686261521,-1.5276033126713284],[33.946797386675,-1.5275587377165123],[33.946623486338666,-1.5275765555860779],[33.94648974280296,-1.5276434300927153],[33.94634706580091,-1.527728128041041],[33.94633813252865,-1.5278886749494547],[33.94632477515802,-1.5279956953489007],[33.946222170067834,-1.5281071585252999],[33.94600368720498,-1.5281874135266675],[33.945914524267245,-1.5282275514594208],[33.94591894838452,-1.5282676774847122],[33.945941239126,-1.5282988983250272],[33.94596803905611,-1.5283435018420068],[33.9459501724369,-1.5283702556246976],[33.945914524267245,-1.5284104216437613],[33.94586543356702,-1.5284505202109322],[33.94580307047325,-1.5284772698962585],[33.94571390734058,-1.5284728177690878],[33.945646949854805,-1.5284728461144583],[33.945593434878695,-1.5284995605934166],[33.94553107160007,-1.528535265653656],[33.94548648991242,-1.5285708986666076],[33.94542404148148,-1.5285976501508798]]]},"id":"00000000000000000000","properties":{"class":1,"id":1}},{"type":"Feature","geometry":{"type":"Polygon","coordinates":[[[33.946895567052,-1.5273803501712055],[33.947965675301525,-1.5275497608537163],[33.94815301527753,-1.5277325971096123],[33.948425006378365,-1.5280536712714197],[33.94853645698754,-1.5281294855520138],[33.948639059489714,-1.527946633769627],[33.948585546258705,-1.5277326181687068],[33.94850080982268,-1.5277014073986557],[33.948447296511034,-1.527643451574826],[33.948447296511034,-1.5275497668087068],[33.94851416687653,-1.5275052141662981],[33.948585546258705,-1.5275096770271175],[33.94871035369812,-1.527607730400429],[33.948741576800586,-1.5275809855344293],[33.94877730894841,-1.5274650455838066],[33.94871486275717,-1.5274561612885218],[33.94862119339063,-1.5274115861890483],[33.94854096605513,-1.5273134744168089],[33.94854096605513,-1.5271261688054334],[33.94858997024718,-1.5270013464726446],[33.94871035369812,-1.5269745472164904],[33.94881737998334,-1.5269344631778414],[33.94881737998334,-1.5268630742306826],[33.94876386685634,-1.5268541529946373],[33.94865241652343,-1.5268184808294871],[33.948607836352366,-1.5267917374124542],[33.94844287251566,-1.526747143839218],[33.94832691271492,-1.5267293378307696],[33.948242176040026,-1.5266847259974525],[33.94815743928688,-1.5266579613746507],[33.948050412231794,-1.5266356721907335],[33.94806827844204,-1.5267025416078563],[33.94797018439718,-1.5267872997171312],[33.94786758114697,-1.5268318743290543],[33.94776055375375,-1.5268497263956382],[33.94781857656907,-1.5268809225127384],[33.947831933722235,-1.526938918766],[33.94781857656907,-1.5270102394051448],[33.94772048225724,-1.5270548572657823],[33.94757329805401,-1.5270458865708467],[33.94750642700276,-1.5270949469421],[33.94742168957009,-1.5270949844295478],[33.94727458996548,-1.5270637181021252],[33.94714076230077,-1.5270771107103476],[33.94706495773276,-1.527094959154875],[33.94709618139519,-1.5271529445884797],[33.94715411955262,-1.5272108832564069],[33.94714076230077,-1.527304561043137],[33.947011443583634,-1.5273402293199354],[33.946895567052,-1.5273803501712055]]]},"id":"00000000000000000001","properties":{"class":1,"id":2}},{"type":"Feature","geometry":{"type":"Polygon","coordinates":[[[33.94861226033977,-1.5276746434089867],[33.94870592971544,-1.5277906093037492],[33.94871486275717,-1.5279198914051628],[33.9486301264406,-1.5281205789069936],[33.94863905948971,-1.528205273319686],[33.94879066596199,-1.5282988940641815],[33.94901807520066,-1.5283524320932336],[33.94908052118551,-1.5284371542037085],[33.9491651720099,-1.528611026555452],[33.94929899672168,-1.5284371231948117],[33.9493435765569,-1.5283346086262586],[33.94946846804093,-1.5282008243908372],[33.949575408365924,-1.5282765952477875],[33.94972709836645,-1.52831673188598],[33.94989205989388,-1.5283212434973679],[33.949981218966215,-1.5283167405605147],[33.95017740265044,-1.52830339983508],[33.950400384550484,-1.5284148821608983],[33.95049847599681,-1.5286288994758905],[33.95046282959436,-1.5287537329626784],[33.95042709810307,-1.528883076803645],[33.95038251879442,-1.5290614304746546],[33.9505609209739,-1.5291907587839522],[33.95069023468777,-1.529315595785573],[33.95073923773171,-1.5294939376800119],[33.95081503926374,-1.5296589530277025],[33.950975574961454,-1.529708007702688],[33.95121191158225,-1.5297615055997553],[33.95136351380242,-1.529841784956286],[33.951479469764664,-1.5300067581627832],[33.95169793958724,-1.5301895903159144],[33.95187191537827,-1.5302475428839337],[33.952036873048435,-1.5302296941736682],[33.95220633930935,-1.530153896816032],[33.95230885263346,-1.5300647282179385],[33.95243816388301,-1.5299220284396444],[33.95245160543664,-1.529730276383974],[33.952268783123735,-1.5295385312313539],[33.952268783123735,-1.5292932938547872],[33.9524693857166,-1.5292799329446098],[33.95271022735087,-1.5292620821213232],[33.95291082897816,-1.5291818392344263],[33.953165025829776,-1.529114961610311],[33.953303268467025,-1.52901237253555],[33.95338349163726,-1.5288206631897148],[33.95327204691732,-1.5287180510498142],[33.95301342658741,-1.528428246540211],[33.95298662871547,-1.528254332266701],[33.95298662871547,-1.5281473117294553],[33.95301342658741,-1.528026903908474],[33.95315609322144,-1.5279511030369104],[33.9532586905563,-1.5279154205706322],[33.95345486723026,-1.528000145868725],[33.95355295540987,-1.5279287889487132],[33.953584176863934,-1.5277994725583388],[33.953535090267884,-1.5275988526071844],[33.95345486723026,-1.5273491429709656],[33.95368677371987,-1.5272688416309212],[33.95377592910347,-1.5270414763606805],[33.953664484860425,-1.5266669134434296],[33.95364661974016,-1.52649741787684],[33.953602041996355,-1.5263681077794535],[33.95381608302654,-1.5262789307507239],[33.95374470771468,-1.5262165455084398],[33.953463799809505,-1.5261139500525307],[33.95328097951437,-1.5261050624087147],[33.95305800461735,-1.5262165060392472],[33.95298220493904,-1.5263592134068693],[33.95280831632692,-1.5264127202046587],[33.95247389459087,-1.5265107880966555],[33.95243816388301,-1.5266267816080559],[33.95238916174673,-1.5268095827269828],[33.952268783123735,-1.5267738872110261],[33.95207251883917,-1.5266758238012066],[33.9519209177909,-1.526805135343652],[33.951738094420136,-1.5269700835547306],[33.951448247594094,-1.5269879413848997],[33.951153975987495,-1.5270057551175074],[33.951104888090754,-1.5271217446697019],[33.95095328544312,-1.5272956464948981],[33.9508685511942,-1.5274516763371702],[33.950725881001844,-1.5276166512690534],[33.95058321058758,-1.5277771810831593],[33.95030671690497,-1.5277147670387592],[33.95019526844646,-1.527603321873078],[33.95016404583876,-1.5275497843375982],[33.9500971766759,-1.527518562456171],[33.95000350872076,-1.527478434507988],[33.949981218966215,-1.5273758883834765],[33.950034731383106,-1.5272599405999892],[33.950025798469895,-1.5271662952180294],[33.94996335312851,-1.5271574109649135],[33.94985641325578,-1.5271574146299598],[33.94978945879308,-1.5271261941992145],[33.949780525855985,-1.5270637350339034],[33.94988755089268,-1.527045882861258],[33.949999084800446,-1.5270013336662378],[33.9500615301175,-1.526970077599875],[33.9500703779519,-1.5269299638511982],[33.9499722860478,-1.5268854071959914],[33.94982068152827,-1.5268452683304676],[33.94971816542329,-1.5268051136785201],[33.94961114018896,-1.5267649780691637],[33.94946846804093,-1.5267650044016354],[33.949392665396175,-1.5267917447344415],[33.94920983698627,-1.5267783493103573],[33.949089369114525,-1.5267471618653565],[33.948870893079125,-1.5267382342426634],[33.948848603049385,-1.5268452229341845],[33.94885311210163,-1.5269701344733437],[33.94901807520066,-1.5269700786735023],[33.94914288205165,-1.527094932586621],[33.949290063736825,-1.5273981674881154],[33.94946846804094,-1.5278530110231445],[33.94940151329509,-1.5279065201388822],[33.94925884082104,-1.5279421818418093],[33.94914288205166,-1.5279020828685048],[33.94906707913786,-1.5277103304014001],[33.94897349520728,-1.5275631767644107],[33.948866469104175,-1.527531933720041],[33.94876386685634,-1.5276657477636792],[33.94861226033977,-1.5276746434089867]]]},"id":"00000000000000000002","properties":{"class":1,"id":3}},{"type":"Feature","geometry":{"type":"Polygon","coordinates":[[[33.95549266376472,-1.5242367008551356],[33.95552388455835,-1.524281278120867],[33.955688835659444,-1.5243481591497758],[33.95609461920937,-1.5245398997234616],[33.95634880723522,-1.5247182390354181],[33.95660299455637,-1.5247985251868372],[33.95678138463501,-1.5249768634157124],[33.956883892844566,-1.5250259676630689],[33.956955265712836,-1.5249189177642382],[33.95703106210685,-1.5248430942739848],[33.9571470109026,-1.5248074275020729],[33.95728967110526,-1.524789620817329],[33.9574591276586,-1.524811900985119],[33.9575259914534,-1.5247895862625362],[33.957610719550814,-1.5247004518729932],[33.95779803982558,-1.5247539020894345],[33.95795856329873,-1.5248163530009782],[33.958172594159024,-1.5248119014164712],[33.95831976135251,-1.5248297643932245],[33.958422267841904,-1.5248342260426349],[33.95846692830973,-1.5247628516317908],[33.958484707423246,-1.5246245956154643],[33.958591722301634,-1.5245532780750224],[33.95874339738821,-1.5246023030737503],[33.95884147991014,-1.5246335176632555],[33.95917145494411,-1.524642425591517],[33.95924274096454,-1.5246291085854267],[33.95937655097012,-1.5246157212891471],[33.95945234536215,-1.5246290586574602],[33.959430057904335,-1.5247405352885368],[33.95948356480731,-1.5247851438871904],[33.9596396618736,-1.5247494996848512],[33.959773386233415,-1.5247048713506188],[33.95999634479901,-1.5246870467398554],[33.96016137291872,-1.5246826086200183],[33.96023716666176,-1.5246379687648908],[33.96036204330932,-1.524602328728676],[33.960544849484485,-1.5246112174984046],[33.96056713667122,-1.5246736727468337],[33.96058942385255,-1.5247761994666378],[33.960625066318286,-1.5249099763347884],[33.96070094474333,-1.5249099751929323],[33.96078566990602,-1.52480744510104],[33.96098625386454,-1.524745010371451],[33.96116914385969,-1.5247450062454495],[33.961320729616254,-1.5248342256327296],[33.961378658786984,-1.524852019333459],[33.9615080423092,-1.5248342037733444],[33.96198508398699,-1.5248341772679288],[33.96213224505901,-1.5248564845234982],[33.96246220824534,-1.524887679544513],[33.962680736961204,-1.5249100043727704],[33.9629215517701,-1.5249367456024328],[33.96308206627001,-1.5249590600840475],[33.963198007411165,-1.5248921536734354],[33.96326486701941,-1.5248297079831263],[33.96336302976553,-1.5247405850400801],[33.9631177077663,-1.5247628236738209],[33.96288582513408,-1.5247449981974324],[33.962555863473106,-1.524736091830185],[33.96239534805145,-1.5247450183421094],[33.96221254556744,-1.5246781544182277],[33.96204752114121,-1.5246380148527467],[33.96195837380176,-1.524611210512871],[33.961784502214606,-1.524633527105304],[33.961615053657674,-1.5246781152933406],[33.96137423541547,-1.5246781074896008],[33.961311797802544,-1.5245175841253298],[33.961369812043756,-1.5244507276684391],[33.96125829196687,-1.5243659773716507],[33.960990762319966,-1.5242277740411205],[33.96074101056798,-1.5241564273938801],[33.96061171102846,-1.5241385531794025],[33.960464547514796,-1.5240984628791026],[33.960384330540506,-1.5240315506725495],[33.960188083627685,-1.5238933046215384],[33.96001863211913,-1.523830891891113],[33.959782318197064,-1.5237595503223962],[33.959189233920995,-1.5237149702460295],[33.95889498715668,-1.5237238805860842],[33.9588057516836,-1.5237862947119614],[33.958703245623035,-1.5238532069181123],[33.95857836671553,-1.523871001904277],[33.958391133102886,-1.5238665743230497],[33.95832418487143,-1.5238041155802342],[33.95821716968072,-1.5238977820492572],[33.958025426729264,-1.5239111555875087],[33.957905055505584,-1.5238754617582402],[33.957842615529415,-1.5237774193945648],[33.95779353121311,-1.5237283475890857],[33.95769995618722,-1.52371495725613],[33.95756614373423,-1.5237550779572262],[33.95741897533091,-1.5237372752553955],[33.957347687892224,-1.5237149652415876],[33.95727631532946,-1.523746188601986],[33.95721387492505,-1.523737242084717],[33.957111367084444,-1.5237283335998406],[33.95704441791839,-1.523728358889338],[33.956897333746525,-1.5237461808118866],[33.95677245237895,-1.5237595302182725],[33.956692147104484,-1.5237862828989914],[33.95662085910063,-1.5237863241323628],[33.95651384192157,-1.5237907713548642],[33.95638453641932,-1.523777402920026],[33.95633102770748,-1.523719394752526],[33.95624629842739,-1.5236926941627393],[33.95611248385268,-1.523710525522911],[33.95604561902697,-1.5237684657512436],[33.95594302481029,-1.523821982662729],[33.95586280387928,-1.5238130455319325],[33.955813718503,-1.5238620853102978],[33.95576020945803,-1.5239646757689977],[33.955720056386276,-1.5240404769754874],[33.95560861450604,-1.5240984753725983],[33.955550681688834,-1.5241608878262431],[33.95549266376472,-1.5242367008551356]]]},"id":"00000000000000000003","properties":{"class":1,"id":4}},{"type":"Feature","geometry":{"type":"Polygon","coordinates":[[[33.96465614825517,-1.5268006596442933],[33.964687365927574,-1.526872031335516],[33.96508417819353,-1.5269255439352418],[33.965409707573,-1.5270503526291872],[33.96566386976493,-1.527130627594727],[33.96589574536645,-1.5271975333380132],[33.966114265893225,-1.52723318919849],[33.96617670023371,-1.5272153361094503],[33.96624806586506,-1.5271350852987087],[33.96634614035474,-1.527041451142785],[33.96643528342514,-1.5270013236961775],[33.96636842613047,-1.5268898424034112],[33.96635949480879,-1.5267516369649172],[33.966377357451286,-1.5266267816455932],[33.96644872292632,-1.5265108457608145],[33.966604723067896,-1.5264484043418607],[33.96676973928621,-1.5264662511587244],[33.966939178310334,-1.5265063691103609],[33.9670640458243,-1.5264929537456442],[33.96695704083979,-1.5264172022022187],[33.96686781321739,-1.5263413787065334],[33.96673409921061,-1.5262343710100936],[33.966586945529734,-1.526082718304251],[33.96654679720119,-1.5261674685441633],[33.96639513503013,-1.5263458442307536],[33.96632827770616,-1.5264216279525749],[33.96616776889333,-1.5265108230385134],[33.96599382023333,-1.526519747352788],[33.965891322213,-1.5266222884941894],[33.965824379460635,-1.526724871411617],[33.96559701190729,-1.5267337667070706],[33.96532498668565,-1.5267114801507813],[33.965173407553195,-1.526684748015019],[33.964888026407195,-1.5267248765871195],[33.96465614825517,-1.5268006596442933]]]},"id":"00000000000000000004","properties":{"class":1,"id":5}},{"type":"Feature","geometry":{"type":"Polygon","coordinates":[[[33.96473193828064,-1.5214229795920542],[33.964838945864194,-1.5214586628316977],[33.96503960601182,-1.5213605597784194],[33.96516889930355,-1.5212401508126603],[33.965253620335226,-1.5210930060740708],[33.965369558728526,-1.5210038275724587],[33.96550335978801,-1.52104397033916],[33.96555243997508,-1.521159892925926],[33.96550778296019,-1.521266935046599],[33.965503359788016,-1.5213828270498913],[33.96549442838199,-1.521472007380739],[33.96549000520916,-1.5215389447027545],[33.96543650181322,-1.5216504060921547],[33.96542757040069,-1.521712794316122],[33.9655747259439,-1.5217529448970155],[33.96566837799022,-1.5216013171042369],[33.96566386976493,-1.5214318756333653],[33.96572630441237,-1.5213025997907694],[33.96576194488004,-1.5210975010124497],[33.965860104950835,-1.5209904294477166],[33.9660161911553,-1.5211241932424837],[33.96610533454676,-1.5212579808890914],[33.96618112337338,-1.5212936660141168],[33.9662614203334,-1.5214898395782477],[33.96618112337338,-1.521614743106764],[33.96602503744993,-1.521717296669165],[33.965944825343314,-1.521815407206365],[33.96596260300609,-1.5219670181862979],[33.965998328442375,-1.5221453486406415],[33.96616334575301,-1.522256853538157],[33.96641299766568,-1.5223103565610177],[33.966809887517044,-1.5223326418524072],[33.966997188988536,-1.5224084348168705],[33.96722012997741,-1.5223415384691947],[33.96736277449944,-1.522230087038315],[33.96751885814353,-1.522167659602205],[33.96762143940183,-1.5220606300056636],[33.967657079132174,-1.5219670215859296],[33.96756342911896,-1.5218331915945718],[33.9674564247178,-1.521672684947742],[33.96762143940183,-1.521605778492479],[33.96758579965762,-1.5215032601157936],[33.96746535593254,-1.5213025600237666],[33.967465355932546,-1.5212089735691052],[33.967514435068445,-1.5211242019369051],[33.96751885814353,-1.5210662798165184],[33.967465355932546,-1.5210082820681767],[33.967322711570255,-1.5209280491742931],[33.96716211944039,-1.520812085505387],[33.96705069147296,-1.520794261091117],[33.96701947460588,-1.5209146410466226],[33.96694368647285,-1.5210082855541684],[33.96679653312866,-1.5210484493489056],[33.96665822578156,-1.5209949301593457],[33.966653802664915,-1.5209057439876135],[33.96663151695861,-1.520807617437267],[33.96658243734965,-1.520785345003019],[33.966551220323,-1.5208923295945824],[33.966578014229356,-1.5209993888304993],[33.96649771754683,-1.5210573096083442],[33.96635056348623,-1.5210796328659437],[33.966279282995025,-1.5210796106582019],[33.96617670023371,-1.5210707028315607],[33.966149906209964,-1.5209280230483335],[33.9662614203334,-1.520812071379625],[33.966265843468996,-1.5207585937041617],[33.966042900157646,-1.5206961538550008],[33.965592503678494,-1.5206426552379144],[33.9653963529805,-1.5207942579237255],[33.96525812858071,-1.520878956979782],[33.96509310963955,-1.5209815442830918],[33.964959307980905,-1.5210885746837963],[33.96479879676959,-1.5212758438942247],[33.96473193828064,-1.5214229795920542]]]},"id":"00000000000000000005","properties":{"class":1,"id":6}},{"type":"Feature","geometry":{"type":"Polygon","coordinates":[[[33.96737621386455,-1.5225109853909775],[33.96739849938968,-1.5225778775149885],[33.96747871022342,-1.5226447826618517],[33.96755900604603,-1.5226804484244691],[33.96764814793613,-1.5227428722620464],[33.967781945667525,-1.5227964096002824],[33.9678889496884,-1.5228766637421196],[33.96796482209805,-1.5229301881873971],[33.96808518010775,-1.5229703224159534],[33.968232331381756,-1.523046091959818],[33.96838390545266,-1.5231174607672582],[33.968455269364405,-1.5231174179830775],[33.96841962994463,-1.5230550245501724],[33.96831704958024,-1.523019325902552],[33.968210046059504,-1.52294351694144],[33.968214469100985,-1.522881085603846],[33.968276902010004,-1.522832062060565],[33.968339334876475,-1.5228008181946453],[33.96833491184102,-1.522760708187204],[33.96830811844856,-1.5227473591769167],[33.96820111491737,-1.5227384088913447],[33.96806289474968,-1.5226893958831946],[33.96800939285648,-1.5226313968599845],[33.96797817631611,-1.5225243524017782],[33.967942451651965,-1.5224619609389973],[33.96789788086097,-1.522395097748703],[33.967594645800666,-1.5224352179908012],[33.96747871022342,-1.522448589774447],[33.9673806369463,-1.522470902178355],[33.96737621386455,-1.5225109853909775]]]},"id":"00000000000000000006","properties":{"class":1,"id":7}},{"type":"Feature","geometry":{"type":"Polygon","coordinates":[[[34.02999980911595,-1.5303902128988804],[34.030138020609826,-1.5305061943759137],[34.03026730681747,-1.5306577554650922],[34.03040109787406,-1.530782640561169],[34.03047249835755,-1.5309699243439778],[34.030521543657244,-1.5311482944665353],[34.030534888734216,-1.5312999118307316],[34.03060178409063,-1.531464879526827],[34.03065524934018,-1.5315763437679466],[34.03086044000667,-1.5316922901475138],[34.03102984520871,-1.5318305410860988],[34.03107447020952,-1.53199554156399],[34.03106104021158,-1.5321694273109179],[34.030940680141626,-1.5322229402008132],[34.0308515149873,-1.532249664557958],[34.030771189773546,-1.5324369777789093],[34.030775694787415,-1.5328204739451254],[34.03073999467146,-1.533056783924881],[34.03079354484015,-1.5331950321609829],[34.030954025157214,-1.5333287574563084],[34.03107889020841,-1.5334581276810222],[34.03121268007336,-1.5336275713292908],[34.03117256013448,-1.5339530749333872],[34.03110116019956,-1.5342205837488865],[34.03100757520013,-1.5343855620088485],[34.03102092020592,-1.534559469491706],[34.03134196475623,-1.5345684145916663],[34.03171205283422,-1.5344479912633986],[34.03185476669146,-1.5342874946746872],[34.03206437460776,-1.534238410803071],[34.03227389704298,-1.5342295017966765],[34.03246565427336,-1.534158155234677],[34.032644066334036,-1.5341091422203912],[34.032898211543696,-1.5339887209635676],[34.03304534344638,-1.5338861554362406],[34.03323267915886,-1.533743494112325],[34.03340658483389,-1.5336141586689926],[34.033540286283056,-1.5335160958377674],[34.03361610418231,-1.5333466347889455],[34.03380343872108,-1.5331013590396785],[34.034044236135415,-1.5327579949988572],[34.03422706495077,-1.5325127452804272],[34.034173516800166,-1.532258622386665],[34.03434300083882,-1.532057922220737],[34.03474427046761,-1.5316789122754113],[34.03487805494987,-1.5314425803404104],[34.03504753767767,-1.5312552773080343],[34.0350965805145,-1.531103714758663],[34.035016259043516,-1.5310367974277057],[34.03486471050906,-1.5308807093111816],[34.034766539562796,-1.5306310440014876],[34.03474877528502,-1.5304749504120359],[34.03457036734627,-1.5304036318809338],[34.03439646389292,-1.5302965684394592],[34.03411104391801,-1.5301628241372573],[34.03383012791167,-1.5299710605555943],[34.03366072791637,-1.5298016587945216],[34.03347789796438,-1.5296856855407286],[34.0331702056315,-1.529600961819985],[34.03296060025936,-1.5295340911108015],[34.032800123476555,-1.529538525441311],[34.03270203530381,-1.5296054497653633],[34.03251920342783,-1.5296054126311112],[34.032323026371834,-1.5295697672185837],[34.03226947710205,-1.5294538074776496],[34.03214019373528,-1.5293423592640425],[34.03197070559851,-1.5293423278878437],[34.03182799192289,-1.5294716347075823],[34.03161396349006,-1.52970798537937],[34.03140885952011,-1.5299488055834476],[34.03119483010274,-1.5299131114910103],[34.030873785034004,-1.529814989461872],[34.03069545450716,-1.529685726557921],[34.030561663882764,-1.529645562334721],[34.03023611154287,-1.5296946210482165],[34.03010232024404,-1.5299086756548594],[34.03007562996142,-1.530127157213762],[34.02999980911595,-1.5303902128988804]]]},"id":"00000000000000000007","properties":{"class":1,"id":8}},{"type":"Feature","geometry":{"type":"Polygon","coordinates":[[[34.0430248535401,-1.5206738550325547],[34.04312735000885,-1.520870069592327],[34.04324335955439,-1.5210439612500637],[34.04342616990081,-1.5212490991105385],[34.04354651347099,-1.521463129111551],[34.04378286574002,-1.5216058124118539],[34.04398802683087,-1.5216949614382425],[34.044219873604796,-1.5217886276776091],[34.04450075755991,-1.5218109137818803],[34.0447817256354,-1.521797547291644],[34.04494226629095,-1.5217618541430373],[34.045151844084295,-1.5217886263126277],[34.04546391523259,-1.5216816281543937],[34.04560660753893,-1.5215969125680382],[34.04584745872656,-1.521494338948397],[34.046016921036205,-1.5213337736946353],[34.04612833765861,-1.521182206964975],[34.04623091561828,-1.5209324861053],[34.046333493462335,-1.5207050945329506],[34.046516297602004,-1.520513334490742],[34.04662329436881,-1.5202413376636554],[34.04676598485729,-1.5197508062868819],[34.04688640899658,-1.519683952260098],[34.04702017563772,-1.5196526923675788],[34.047234252845485,-1.5195724431623479],[34.04757308699961,-1.5196215103230795],[34.047555240235916,-1.519871240673954],[34.047608780516505,-1.5200049786309062],[34.04781393298259,-1.5201298326466537],[34.04790308152811,-1.5202502278487056],[34.04820630490715,-1.5202145732346823],[34.048531793003946,-1.5201699470974745],[34.048661138080995,-1.5201209418435164],[34.04860759841963,-1.520022852698331],[34.048567486144755,-1.519897941696412],[34.04841145602601,-1.5197419273221169],[34.04834006960796,-1.5195947579456288],[34.04837576282399,-1.519295990511978],[34.04841587518338,-1.5191978907688826],[34.04858533270991,-1.519139905750486],[34.04876371318549,-1.5191622436259895],[34.04881274863368,-1.5190998164998302],[34.04885286080043,-1.5189793925746882],[34.04887963056289,-1.518801051600925],[34.04890189620058,-1.5186806400541881],[34.04891974270015,-1.5185870117459799],[34.04899554779261,-1.5184086586437406],[34.04914715778805,-1.5183015979371048],[34.049271997891715,-1.518158939857896],[34.049271997891715,-1.5180563822631488],[34.04920511625095,-1.5180028777544694],[34.04904908722568,-1.5181455382423596],[34.04891974270015,-1.5182258047525934],[34.04872802012165,-1.5183194606609558],[34.04841587518338,-1.5183016125728905],[34.04801007666428,-1.5182748329959104],[34.04788081564599,-1.5181723050826839],[34.04779608626613,-1.518042955018326],[34.0476623207656,-1.5180697088704118],[34.047510708295995,-1.518158947046474],[34.0472877083301,-1.518167809901444],[34.047189635763544,-1.518158895781281],[34.04718513156166,-1.518051914352731],[34.047323401958934,-1.5179894954351087],[34.0473189827485,-1.5178289209108595],[34.047171788924636,-1.517824462302222],[34.046975558450804,-1.5178289599523356],[34.04680618291162,-1.5178200261030121],[34.04656533426134,-1.517869108863299],[34.046302303691,-1.517958243892433],[34.04640479646891,-1.5182302962514884],[34.04631122719615,-1.5183952799361518],[34.046074881492956,-1.5184710507285848],[34.045722613924475,-1.5183907665650327],[34.04567799610138,-1.518248113489968],[34.04533014630388,-1.5181633706165536],[34.045044760600554,-1.5180028234121086],[34.044937761977856,-1.518002826014469],[34.045013570387546,-1.5182659244623622],[34.04511614960372,-1.518520095909567],[34.04509830235818,-1.5188144157757981],[34.044906571728184,-1.5188099538080162],[34.0447059170326,-1.5189705081545144],[34.04469257403207,-1.5190551800839103],[34.0449466856168,-1.5189793958988835],[34.045129492542145,-1.5190463087054538],[34.04522314801669,-1.5192068365444082],[34.045156263399974,-1.5193405740270254],[34.045013570387546,-1.519416399767748],[34.04488872444154,-1.5195501898055659],[34.04506260785659,-1.519652725967196],[34.04528110897898,-1.519634873485956],[34.04545949593186,-1.5195367597577811],[34.04573153748647,-1.5194386962292818],[34.04590091502582,-1.519510042658962],[34.046048110905346,-1.5196839202111503],[34.046199725811796,-1.5198622828225736],[34.04625318190411,-1.520045118165275],[34.04611499486663,-1.520330501968744],[34.04593218992083,-1.520504436907696],[34.04576714673943,-1.5205311404693298],[34.04559776895111,-1.5204597938327695],[34.04534357419759,-1.520183350030738],[34.044991303798426,-1.5200183860603038],[34.044701412707795,-1.5199960719778698],[34.044567642658365,-1.52005848009679],[34.04495560925488,-1.5201164746114435],[34.04517861493555,-1.5202279375909293],[34.04526326176578,-1.520357237274239],[34.04529453687993,-1.520486568538091],[34.04520980509199,-1.520722892791971],[34.04495118992946,-1.5208165294548925],[34.044808496595515,-1.520785349453124],[34.04453203293608,-1.5207407158726447],[34.044188683109105,-1.5206604589641481],[34.04373382758148,-1.5205578986554178],[34.043408322323884,-1.5205356068286426],[34.04314077822755,-1.5205267088568908],[34.0430248535401,-1.5206738550325547]]]},"id":"00000000000000000008","properties":{"class":1,"id":11}},{"type":"Feature","geometry":{"type":"Polygon","coordinates":[[[34.05188510244145,-1.525672530835368],[34.05191629029898,-1.5257795423982705],[34.05205897248632,-1.5258865222346947],[34.052322071394414,-1.525913308312357],[34.05252270929446,-1.525882065458293],[34.052638621882096,-1.5258464255543593],[34.053227275389965,-1.5261407250374919],[34.05350821651796,-1.5264840463983222],[34.053994210328206,-1.5268363221746892],[34.05443116914828,-1.5272153868860276],[34.054966275135165,-1.5275944109795945],[34.05540331426184,-1.52736250955783],[34.05552372696734,-1.5272153273060214],[34.05534085595025,-1.526996875435],[34.05474779727313,-1.5267783449513077],[34.054212690000675,-1.5264350369095987],[34.053713270701465,-1.5261273539880589],[34.05332534144794,-1.525873176970521],[34.05312912424686,-1.5257482876007422],[34.05302213513125,-1.5256412841458968],[34.05297310195202,-1.5255075175824278],[34.05321384865975,-1.5254450847242653],[34.05356617220227,-1.5254317164271813],[34.05388271836,-1.5254316976193807],[34.0543063361251,-1.5256011602033648],[34.05479241064817,-1.5257973773654638],[34.05616130831085,-1.5265197470516298],[34.05666963665478,-1.5266401242295076],[34.05729837251224,-1.5267738756539355],[34.057588223461856,-1.5268809137507193],[34.057904840593565,-1.5269567530298283],[34.058225875303386,-1.5269968616310239],[34.05835971024332,-1.5267426779641546],[34.05853807154907,-1.526403813036271],[34.05865839512891,-1.526096095719709],[34.05874319936422,-1.5257839634807875],[34.05882791854635,-1.5252176690985708],[34.058863522672546,-1.5249456561995565],[34.05883233719761,-1.5247004415738705],[34.05864505417487,-1.5243035400759526],[34.05837755488709,-1.5240895278681277],[34.057864732418864,-1.5239378979299312],[34.05749458071727,-1.524000365427719],[34.0570888227014,-1.524187625441844],[34.05670532660225,-1.5241207542822681],[34.056495775424615,-1.5240538402793655],[34.05632182888561,-1.524245570742503],[34.05593391075959,-1.5242857247963508],[34.05531408808928,-1.5242990856500016],[34.05476122377687,-1.5243392443063957],[34.0544400918561,-1.5242812418473437],[34.05415031584978,-1.5243793979812532],[34.054114624899505,-1.5245621740831872],[34.05392291326978,-1.5245755504318672],[34.05354832661426,-1.5245087016602834],[34.05316481558388,-1.5242277425022837],[34.05316039665719,-1.524361540210741],[34.05315589275093,-1.524446243884364],[34.05315589275093,-1.5245176059154966],[34.05310685964381,-1.524584483434855],[34.05302655406465,-1.5245845083488285],[34.05298644373824,-1.5246647334099068],[34.052982024802894,-1.5247494981327876],[34.052968598036486,-1.524932310102133],[34.05287053159386,-1.5249456690235397],[34.0527501153754,-1.5248876964965925],[34.052665390530535,-1.5248252581082518],[34.05255389693336,-1.5248386732463934],[34.052634202929845,-1.524923395837309],[34.05262528004486,-1.5250705391347392],[34.05254055508368,-1.5252756686506452],[34.052429061333505,-1.5254183668866454],[34.05208574130536,-1.5255298308036722],[34.05188510244145,-1.525672530835368]]]},"id":"00000000000000000009","properties":{"class":1,"id":12}},{"type":"Feature","geometry":{"type":"Polygon","coordinates":[[[34.05767294372028,-1.5197017865830806],[34.057909344264615,-1.519853382787937],[34.05802966867657,-1.5200272863413902],[34.058194689609714,-1.5201342813337804],[34.05843992613828,-1.520250259945442],[34.0585648384609,-1.5202502405456402],[34.05873869573447,-1.5203171161044977],[34.05891705629668,-1.5203305067909632],[34.059077572006096,-1.520415258106611],[34.0592247465631,-1.520499940182355],[34.05938526172923,-1.5205935713800662],[34.05983120179373,-1.5208388423398318],[34.06008535606138,-1.5209859859907067],[34.06030832464984,-1.5209949366026063],[34.0606025845679,-1.5211063945594048],[34.06082555188762,-1.521119784819086],[34.06096822009525,-1.5212089247311542],[34.061008411872685,-1.5213382604477983],[34.06117784593572,-1.5214631190051853],[34.061374045767515,-1.5215344628915806],[34.06147660653311,-1.5214898867791395],[34.061262562848775,-1.5213159401029537],[34.06129374748997,-1.5212401464344785],[34.0612804069227,-1.521075179542389],[34.061307173027025,-1.5209859607106238],[34.061431996438024,-1.5208433066947107],[34.06159701119475,-1.520745195749749],[34.061681727717115,-1.5206247841610738],[34.06185116052496,-1.5205668629204998],[34.06186900448333,-1.520366191598457],[34.0618466570492,-1.5200540119072727],[34.06173517471016,-1.5200005121727314],[34.06116000184165,-1.5197508436595966],[34.060722990387376,-1.5197419036686348],[34.06015222970078,-1.519790982917535],[34.05976874652389,-1.519773128333166],[34.05948340611943,-1.51958584512128],[34.05909541650895,-1.5196215345358244],[34.05852914924338,-1.519474371857283],[34.05824371997342,-1.5194520448976123],[34.05809212514119,-1.5194208447216888],[34.05785581004709,-1.5194387072999775],[34.0576863697921,-1.5195145100780683],[34.05767294372028,-1.5197017865830806]]]},"id":"0000000000000000000a","properties":{"class":1,"id":9}},{"type":"Feature","geometry":{"type":"Polygon","coordinates":[[[34.06199382712272,-1.5200585265528217],[34.062047358903285,-1.5202635891918905],[34.06206069935798,-1.520348324526235],[34.06214099695792,-1.5204464123297041],[34.06223021643022,-1.5205712880094675],[34.06233719471056,-1.520673830734658],[34.0625111297395,-1.5206738560374364],[34.062689482899316,-1.520633719637275],[34.062823226296885,-1.52060252328392],[34.062943629174505,-1.5206203433154142],[34.0630640318926,-1.5206159022412948],[34.06317551260158,-1.5206069963220452],[34.06333160235835,-1.5206203529571796],[34.06350103209029,-1.5206114559795012],[34.06368830510749,-1.5205802247626283],[34.06386223755047,-1.5204776407746363],[34.06396029213709,-1.52043752718669],[34.064129720696855,-1.5204687121472413],[34.0642189382167,-1.5204553342818579],[34.06437944456279,-1.5204464126612443],[34.06455337568288,-1.5204330571633082],[34.064557794055794,-1.520375075847474],[34.06451327044193,-1.5202859073300068],[34.06430365229494,-1.5202235013857497],[34.064187754579244,-1.5201655194143215],[34.06404500645647,-1.520147668391105],[34.06389342129964,-1.520169995413063],[34.06379528167143,-1.5201432048496395],[34.06361693068184,-1.520076352766303],[34.06344750116599,-1.520022844902953],[34.06333602079068,-1.519973786046681],[34.06319777473897,-1.5199470359083993],[34.063090797471645,-1.5199470421747694],[34.062930288849415,-1.5199648423603562],[34.06279646063904,-1.5199737779670723],[34.06265379530125,-1.5199737457230516],[34.06256907968498,-1.5200049866209007],[34.06235945705331,-1.5200139245072997],[34.06222571297322,-1.5200183571731152],[34.06200725255636,-1.5198890782365724],[34.06199382712272,-1.5200585265528217]]]},"id":"0000000000000000000b","properties":{"class":1,"id":10}},{"type":"Feature","geometry":{"type":"Polygon","coordinates":[[[34.08574303481526,-1.5481151468284098],[34.08630488498479,-1.5485788930618007],[34.08698268538815,-1.549167491873906],[34.08778526791087,-1.549167497723437],[34.08865928307249,-1.549386021011713],[34.08968041500708,-1.5490916859778865],[34.090701535442754,-1.5488731816859704],[34.091236597619655,-1.5485031058677121],[34.090144129639135,-1.5483113459564266],[34.088806409687045,-1.5477985657775462],[34.08771391242808,-1.5475042581611291],[34.08579205030728,-1.5471876439754388],[34.08574303481526,-1.5481151468284098]]]},"id":"0000000000000000000c","properties":{"class":1,"id":13}},{"type":"Feature","geometry":{"type":"Polygon","coordinates":[[[34.11720646147048,-1.542086476339642],[34.11783961817868,-1.5430362257436434],[34.118423772643915,-1.5432814829422052],[34.11978381296646,-1.5432815255908225],[34.12192420464009,-1.543767544434395],[34.12250383226306,-1.5442089625063482],[34.12364541439101,-1.5441331815875359],[34.12459516509376,-1.542840069081471],[34.125518158676776,-1.5419838705352236],[34.126927255361416,-1.5402448308934689],[34.1291613015081,-1.5405391689366543],[34.130062002757626,-1.5402939085552476],[34.12794396505275,-1.5395091076737235],[34.127408865052196,-1.5390453582108712],[34.1268024371985,-1.5387287741235418],[34.12554049041949,-1.5385325570025716],[34.12437218473415,-1.5386306271200298],[34.12340009942345,-1.5390230435504548],[34.12230767976228,-1.5393173475633868],[34.121117084394584,-1.5393663872197891],[34.12046161763499,-1.5394154317093929],[34.12012271593562,-1.5400531010325496],[34.119877476329464,-1.540516865009574],[34.11883401173557,-1.5405926542298136],[34.11779053510518,-1.540592662911226],[34.11727779372454,-1.541132231039922],[34.11720646147048,-1.542086476339642]]]},"id":"0000000000000000000d","properties":{"class":1,"id":14}},{"type":"Feature","geometry":{"type":"Polygon","coordinates":[[[34.123756820622425,-1.5702501303334875],[34.12385498026746,-1.5706916210979105],[34.12385498026747,-1.5711553652795658],[34.123953054892894,-1.5716458651985112],[34.12410020908805,-1.5722567209885612],[34.1242964426133,-1.572769537717899],[34.12475573438765,-1.5728676361168772],[34.12546024896085,-1.573157478363812],[34.12594628184817,-1.5733046311792696],[34.12650363710026,-1.5734785348141354],[34.12703874245919,-1.57354985425373],[34.12772099295255,-1.573746053791888],[34.12854596999427,-1.573817407222289],[34.128889255361216,-1.573844157929265],[34.129107809352874,-1.573277851086352],[34.12905873239533,-1.5726669806739675],[34.128617293304195,-1.5722523009877867],[34.12777007063643,-1.571864354168315],[34.12684701513361,-1.5715210080072528],[34.12631190863981,-1.5710304978616403],[34.12567872633149,-1.5703972912315283],[34.124706655067364,-1.5702501470681367],[34.12397538702218,-1.5700539153085058],[34.123756820622425,-1.5702501303334875]]]},"id":"0000000000000000000e","properties":{"class":1,"id":15}},{"type":"Feature","geometry":{"type":"Polygon","coordinates":[[[34.11594896650014,-1.5775764692206034],[34.11609613371753,-1.5777993963224257],[34.115975716473784,-1.5780178700290386],[34.1159980505727,-1.5781873260643722],[34.11630121631313,-1.578312224299701],[34.116644548164565,-1.5783746457516017],[34.11680063082629,-1.5786421605743532],[34.11680063082629,-1.5788874040054217],[34.11691213040832,-1.5790835932069003],[34.11770137028415,-1.5791906525940085],[34.11791986639893,-1.5790300958165244],[34.11788420053205,-1.5787893470705043],[34.11745612411364,-1.578249757534537],[34.11723762687887,-1.5777592850574482],[34.11660446595772,-1.577393639104817],[34.11631463370899,-1.5775050866978693],[34.11594896650014,-1.5775764692206034]]]},"id":"0000000000000000000f","properties":{"class":1,"id":16}},{"type":"Feature","geometry":{"type":"Polygon","coordinates":[[[34.11755420567781,-1.5765865465661941],[34.11795553225174,-1.5768183693092885],[34.11818744487077,-1.5770859390967198],[34.11829444207057,-1.5774649664850902],[34.1182721934569,-1.5777860402601405],[34.11839252272586,-1.5780535961777538],[34.11859768503414,-1.5781248891457496],[34.1188295110891,-1.577955451134246],[34.118941008170616,-1.5777102391872453],[34.118878593598886,-1.5775051211556923],[34.11868243323594,-1.5773089165987888],[34.11849068819301,-1.5770992976329334],[34.118294442070564,-1.576867419022865],[34.118223110618096,-1.5766355586506644],[34.118062614644394,-1.576452763624545],[34.11785745112266,-1.5764750413123731],[34.11755420567781,-1.5765865465661941]]]},"id":"00000000000000000010","properties":{"class":1,"id":17}},{"type":"Feature","geometry":{"type":"Polygon","coordinates":[[[34.10938071698247,-1.570143111008216],[34.10958581479558,-1.5704552406445065],[34.10983999955644,-1.5706380859768365],[34.11022344097094,-1.5705979510669799],[34.110535628174496,-1.570642519516628],[34.110709555725144,-1.5707896983855778],[34.110856646537435,-1.5706381049856788],[34.11086114758046,-1.5704062105118994],[34.11087006474052,-1.5701297377701442],[34.11062038392696,-1.5698889221796561],[34.110410787392574,-1.5696882813210156],[34.11028594643849,-1.5697863807932693],[34.11015210315634,-1.569866688163543],[34.10958581479558,-1.5698666382574618],[34.10944763921852,-1.5700271979602172],[34.10938071698247,-1.570143111008216]]]},"id":"00000000000000000011","properties":{"class":1,"id":20}},{"type":"Feature","geometry":{"type":"Polygon","coordinates":[[[34.20237522610611,-1.5057403074048565],[34.202665121187266,-1.5069843950891875],[34.202888077610694,-1.5077915089429492],[34.203396429761256,-1.508500535282061],[34.2041277323821,-1.5085495542686909],[34.204903568387415,-1.507813818831487],[34.2046851133283,-1.507104803840788],[34.20434169241762,-1.5063021492736275],[34.204074199874796,-1.505544121824055],[34.20361488795428,-1.5049332239716458],[34.20470734062461,-1.5040012995950884],[34.204609269001004,-1.502926647816942],[34.203637200353405,-1.5037827856057342],[34.202932617925775,-1.5047370232690906],[34.20237522610611,-1.5057403074048565]]]},"id":"00000000000000000012","properties":{"class":1,"id":21}},{"type":"Feature","geometry":{"type":"Polygon","coordinates":[[[34.1710188752169,-1.5278351986327923],[34.17113921906325,-1.5282275846701339],[34.17191958305083,-1.5285218430445324],[34.17252604722956,-1.528740395292716],[34.17294070818385,-1.5288384742451446],[34.17388603636531,-1.5289365527364966],[34.174590591771526,-1.5283479473558965],[34.174978510733965,-1.5275899024189497],[34.17616915946211,-1.5274160272368187],[34.17690042892679,-1.5271707604242557],[34.17728833793771,-1.5269031903287738],[34.17767633013975,-1.526657982107041],[34.17874652480996,-1.5262655508250011],[34.17986125850103,-1.5254852197124715],[34.18020019047505,-1.525164177515126],[34.178960545245,-1.5248743050925677],[34.17740875826861,-1.5246558431701718],[34.17626726210499,-1.5246067971123414],[34.17504988220966,-1.524629089522355],[34.174443435026966,-1.5247048998222223],[34.17442120024996,-1.5248743168153525],[34.17561177148302,-1.5251418745808163],[34.17662844184817,-1.5256101008562128],[34.17609778887362,-1.5262432816498466],[34.17573210919201,-1.526564342243475],[34.17296302819335,-1.5260515261082077],[34.17398414149565,-1.5268809014461513],[34.17442120024996,-1.5273936902923646],[34.17422499083469,-1.527857450298556],[34.1738147488333,-1.5280046453581408],[34.17267320710729,-1.52778610705429],[34.1720132771957,-1.5275898973441127],[34.17126414565044,-1.5275898977855857],[34.1710188752169,-1.5278351986327923]]]},"id":"00000000000000000013","properties":{"class":1,"id":22}},{"type":"Feature","geometry":{"type":"Polygon","coordinates":[[[34.17755141244794,-1.5229167802776271],[34.17760046302966,-1.5234295522619181],[34.17869297719092,-1.5234073112388278],[34.17969179203541,-1.5226492465115582],[34.179861258501035,-1.521913495795555],[34.17874202715064,-1.5217172601347624],[34.17755141244794,-1.5229167802776271]]]},"id":"00000000000000000014","properties":{"class":1,"id":23}},{"type":"Feature","geometry":{"type":"Polygon","coordinates":[[[34.18146205167551,-1.5227696156465702],[34.18177865980283,-1.5236748328450063],[34.18178315731043,-1.5243838155309122],[34.18148886709479,-1.5247985144230487],[34.18226914138152,-1.5248698428352812],[34.18311644625363,-1.5244551967833249],[34.18382092941795,-1.5243347561343026],[34.18323677393005,-1.5231575470519132],[34.18234050707702,-1.5227428667252125],[34.18146205167551,-1.5227696156465702]]]},"id":"00000000000000000015","properties":{"class":1,"id":24}},{"type":"Feature","geometry":{"type":"Polygon","coordinates":[[[34.08118583754512,-1.5157554931225246],[34.08215786627891,-1.5153630673271383],[34.08422243707152,-1.515510199589052],[34.08458814740431,-1.5162682624676487],[34.08558248128503,-1.5169995435912131],[34.08692024879127,-1.5173652282466135],[34.08725910485306,-1.516901465536233],[34.08733046069367,-1.5159472201900366],[34.08655454786073,-1.514185839696266],[34.08585007034421,-1.5131379655449388],[34.08511874332861,-1.5134768421571976],[34.084293795301,-1.5138960508549453],[34.08370967557175,-1.5139941400860657],[34.082857954985805,-1.5141412706436324],[34.081524715026944,-1.5145827186430465],[34.08118583754512,-1.5157554931225246]]]},"id":"00000000000000000016","properties":{"class":1,"id":25}},{"type":"Feature","geometry":{"type":"Polygon","coordinates":[[[34.07523289015384,-1.5169549644622433],[34.07564315489464,-1.5176906942858932],[34.07700766050483,-1.517909220537878],[34.07817147982086,-1.517713041401762],[34.07984807043432,-1.5174187257552278],[34.07999521133962,-1.5167319930154268],[34.079072178562434,-1.515559238873696],[34.07758732068043,-1.5148012349666242],[34.07595970910979,-1.5154165890244151],[34.07535327658288,-1.5161746087789383],[34.07523289015384,-1.5169549644622433]]]},"id":"00000000000000000017","properties":{"class":1,"id":26}},{"type":"Feature","geometry":{"type":"Polygon","coordinates":[[[34.22442994591209,-1.498342688639921],[34.2253307123536,-1.4988777754359919],[34.22593715547356,-1.4990026268008734],[34.22630280052524,-1.4991006959964586],[34.22851453538337,-1.4992434240413868],[34.22997265431805,-1.4989981894846456],[34.23057906604045,-1.4988777879582882],[34.230289261117925,-1.4985076677090938],[34.2292413078425,-1.4977273488103595],[34.2286839945836,-1.4970450897306828],[34.22822022860372,-1.4963851615766062],[34.228099791545,-1.495796519704182],[34.22838968836025,-1.4948200078317546],[34.22855914779647,-1.493718598513399],[34.22817120565145,-1.4933529512851609],[34.22736851460658,-1.4935714313457416],[34.22632510728482,-1.4940351605887408],[34.22550017757121,-1.4946237648546334],[34.22520586089732,-1.495234712504993],[34.22661942028519,-1.4957742082920165],[34.22698056730974,-1.4968266093107343],[34.22744433970199,-1.497705038925946],[34.22593715547356,-1.4977540957317554],[34.22462621537846,-1.498026094337252],[34.22442994591209,-1.498342688639921]]]},"id":"00000000000000000018","properties":{"class":1,"id":28}},{"type":"Feature","geometry":{"type":"Polygon","coordinates":[[[34.193300960947646,-1.4886262675710427],[34.1935952973688,-1.4891167964168117],[34.19510243068347,-1.4898481113647712],[34.19614586155525,-1.4904366984954598],[34.19755495762883,-1.4913151612052802],[34.19891499267841,-1.4917030549327892],[34.20008326586624,-1.4916540334910269],[34.200324045337055,-1.4912393204197991],[34.19913346176747,-1.4911412067000889],[34.19835757593624,-1.490922747537297],[34.197095697227496,-1.490115642510709],[34.195370034779344,-1.488724420843758],[34.19454066312107,-1.4880867216628213],[34.193300960947646,-1.4886262675710427]]]},"id":"0000000000000000001f","properties":{"class":1,"id":50}},{"type":"Feature","geometry":{"type":"Polygon","coordinates":[[[34.12569214233626,-1.5488152273723075],[34.13317448138627,-1.5518429644788538],[34.13794122754386,-1.554090370045113],[34.14668557947133,-1.5526188492609476],[34.15718225018583,-1.549484106964618],[34.160874448367686,-1.5466436409675473],[34.166118333837574,-1.5451766397154698],[34.178461135151124,-1.5403741450330448],[34.18118116816435,-1.5376362803151409],[34.17962492185504,-1.5334313216650564],[34.17048827405613,-1.5314782407222547],[34.16329574003706,-1.530604257701357],[34.153383115074355,-1.5324681505454352],[34.14638676024568,-1.5386350987460666],[34.14249845467359,-1.5378547548872092],[34.13180997267708,-1.5412838267470812],[34.12569214233626,-1.5488152273723075]]]},"id":"00000000000000000019","properties":{"class":2,"id":100}},{"type":"Feature","geometry":{"type":"Polygon","coordinates":[[[34.09680601746627,-1.5151356531668463],[34.10381130572983,-1.5255967160917296],[34.1123683050068,-1.5331236465033122],[34.12567872633149,-1.529400331751466],[34.136465315498775,-1.5237238827442898],[34.13519441908166,-1.5098337594138975],[34.1260577701557,-1.5056332760521127],[34.09680601746627,-1.5151356531668463]]]},"id":"0000000000000000001a","properties":{"class":2,"id":101}},{"type":"Feature","geometry":{"type":"Polygon","coordinates":[[[34.08184575121323,-1.5293245366975678],[34.084864574166474,-1.5398881154577866],[34.09011737203571,-1.5438968677646985],[34.096921958469,-1.5452613436304439],[34.099637568596954,-1.5398792323633328],[34.08826241378557,-1.526974564190212],[34.08184575121323,-1.5293245366975678]]]},"id":"0000000000000000001b","properties":{"class":2,"id":102}},{"type":"Feature","geometry":{"type":"Polygon","coordinates":[[[34.18884634285483,-1.5123977669189532],[34.19224417580203,-1.5116129800428062],[34.20079677891171,-1.5077915371407749],[34.20215226840998,-1.4982089093965552],[34.19592738520412,-1.493517939451462],[34.1893234642161,-1.5000728074548777],[34.18884634285483,-1.5123977669189532]]]},"id":"0000000000000000001e","properties":{"class":2,"id":104}},{"type":"Feature","geometry":{"type":"Polygon","coordinates":[[[34.13516767479368,-1.5024227684108238],[34.13599266875589,-1.5048217434665578],[34.137062848832926,-1.5044783847659127],[34.14503119515336,-1.5039834175703692],[34.14610143789697,-1.5024673712754488],[34.14162894951908,-1.5033993236641334],[34.13822666058082,-1.5018832160192759],[34.13516767479368,-1.5024227684108238]]]},"id":"00000000000000000020","properties":{"class":2,"id":106}},{"type":"Feature","geometry":{"type":"Polygon","coordinates":[[[33.98125292187576,-1.5337747182124148],[33.98304993411561,-1.5345104635667879],[33.98572540136964,-1.5349965078479966],[33.98927482451252,-1.535678699789417],[33.99204390478445,-1.5364144567215763],[33.99228472738172,-1.5349429747397836],[33.98990360009196,-1.5327936891294112],[33.98212685424376,-1.5327000656633818],[33.98125292187576,-1.5337747182124148]]]},"id":"0000000000000000001c","properties":{"class":3,"id":200}},{"type":"Feature","geometry":{"type":"Polygon","coordinates":[[[33.97688296472871,-1.5407220017084398],[33.97892525805229,-1.5427285754508213],[33.9819395837248,-1.5429693558855957],[33.98422269306327,-1.5432636503667019],[33.985096682103574,-1.5420908929495198],[33.98626048542936,-1.5409627791062501],[33.98635853847853,-1.5398390859273043],[33.98451252123886,-1.5392504861671272],[33.982421196459974,-1.5383229671067495],[33.98062417187051,-1.5390096878295794],[33.97960300733945,-1.5408691198889763],[33.97688296472871,-1.5407220017084398]]]},"id":"0000000000000000001d","properties":{"class":3,"id":201}},{"type":"Feature","geometry":{"type":"Polygon","coordinates":[[[34.111596852794,-1.5013124578112993],[34.11310408289311,-1.5018965794613732],[34.11573046562565,-1.5011162408575676],[34.12214269055449,-1.4989089670478337],[34.1242785260261,-1.4977362533932128],[34.1242785260261,-1.4972457488731443],[34.121121500011526,-1.4983248669891527],[34.111596852794,-1.5013124578112993]]]},"id":"00000000000000000021","properties":{"class":4,"id":300}},{"type":"Feature","geometry":{"type":"Polygon","coordinates":[[[34.22976749115764,-1.4797303944677862],[34.230882270363246,-1.4795832495938188],[34.2322914148954,-1.4790927608778095],[34.233606822628985,-1.4795341691628503],[34.23477065825965,-1.4800692761328798],[34.236179741651405,-1.4793380000947483],[34.237834061231176,-1.4782098446877634],[34.238320081237205,-1.4775766658299845],[34.237004657888576,-1.4783079396325915],[34.23525669488399,-1.4787984312891207],[34.23433363860771,-1.4787494128103955],[34.23321440739743,-1.4783614272822758],[34.23185438315321,-1.4782142727751255],[34.230106404500916,-1.4788028987581365],[34.22976749115764,-1.4797303944677862]]]},"id":"00000000000000000022","properties":{"class":4,"id":301}}]}