{"type":"FeatureCollection","features":[{"type":"Feature","geometry":{"type":"Polygon","coordinates":[[[33.96705962272726,-1.5276478700960627],[33.96730484911209,-1.5285798213602138],[33.967465355932546,-1.529106035561189],[33.96795138281931,-1.5298373305561404],[33.96867820680441,-1.5304883511123368],[33.96964582215501,-1.5311170704619244],[33.97051093443155,-1.531259760684286],[33.97109952251904,-1.531117090231139],[33.97164353785522,-1.53093422450091],[33.97218754995936,-1.5308094026093364],[33.97307492236693,-1.5306488903788933],[33.97360106473635,-1.5306087367099872],[33.973881995965954,-1.530648878777102],[33.97448842344391,-1.5306488340700535],[33.974769351950506,-1.5306087088172395],[33.97488978606898,-1.5302029272554396],[33.974809496674276,-1.5299175773978593],[33.974408218749915,-1.5297124622551688],[33.97410500524743,-1.5298373248614197],[33.97408263630129,-1.5301405144748301],[33.973659071194675,-1.5301628281778321],[33.973355855211,-1.529757071202467],[33.9733157098498,-1.529186303843782],[33.971844183095975,-1.5284951214223004],[33.97061351233865,-1.5280090921626808],[33.96942288707033,-1.5274204617346199],[33.96853556433093,-1.5273179074962104],[33.9678889496884,-1.5270771113087065],[33.96705962272726,-1.5276478700960627]]]},"id":"00000000000000000000","properties":{"class":1,"id":1}},{"type":"Feature","geometry":{"type":"Polygon","coordinates":[[[33.96733155773872,-1.5437496980250034],[33.96750992693401,-1.5444809903668753],[33.96805838664225,-1.5449670679038225],[33.969088440896954,-1.5457607391867898],[33.971166376360244,-1.5458187344229752],[33.97283855706897,-1.5458187425438277],[33.97449735397282,-1.5458588329795704],[33.97602684304001,-1.546063969330056],[33.97675368797529,-1.5460818280178825],[33.97671354410417,-1.5457785947451026],[33.975625485400414,-1.5454932296247417],[33.97421200187994,-1.5454753627270834],[33.973342416723405,-1.5452702714592694],[33.97304370755327,-1.5447441090561078],[33.97282078074085,-1.5442758727722037],[33.97247741625214,-1.5438478129876378],[33.97219197280874,-1.543544586177207],[33.97142503052023,-1.5434019191430604],[33.97150532288298,-1.5430362197001743],[33.971367107702115,-1.5427330415890355],[33.9708810138859,-1.542996090295306],[33.9704395721216,-1.5432190490446995],[33.96991341158583,-1.5430986935480713],[33.96985097979237,-1.5426304506454322],[33.96971276211457,-1.5424699520361953],[33.969690477152525,-1.5424075385957061],[33.969226744574534,-1.5424699302503353],[33.968905651767734,-1.5420641933588959],[33.96860242004383,-1.541903658332405],[33.96831704958025,-1.5421265606049182],[33.967773014483654,-1.5426126567606002],[33.967389568168436,-1.543058543788744],[33.96733155773872,-1.5437496980250034]]]},"id":"00000000000000000001","properties":{"class":1,"id":2}},{"type":"Feature","geometry":{"type":"Polygon","coordinates":[[[34.029839242117234,-1.5218465794649478],[34.029870522528796,-1.522091854814677],[34.03016029083092,-1.5221320015904378],[34.03080688987728,-1.522132005010175],[34.03115020516087,-1.522114127777673],[34.03102984520871,-1.5219179537913183],[34.03104769521166,-1.5216771690310584],[34.03087820504264,-1.5215656507438315],[34.030646324300704,-1.5215746189174812],[34.0302316915031,-1.5216771763603238],[34.029839242117234,-1.5218465794649478]]]},"id":"00000000000000000002","properties":{"class":1,"id":3}},{"type":"Feature","geometry":{"type":"Polygon","coordinates":[[[34.02964756436078,-1.5257705884643062],[34.03026288677921,-1.5257661304005017],[34.03090056008298,-1.52571709588499],[34.03102984520871,-1.5255654680995003],[34.031475754234904,-1.5255520866518295],[34.03172548273622,-1.525668027784739],[34.03222935762851,-1.525748305809268],[34.032755499320935,-1.525694798241087],[34.03321032469073,-1.5255431835167],[34.03357156542402,-1.5254094164384269],[34.03392829986712,-1.525409421322417],[34.03401746201031,-1.5253692605233313],[34.03402638671956,-1.5250348471952895],[34.03437861454607,-1.5249947109199342],[34.03466403368259,-1.5249858193788146],[34.03474427046761,-1.5248297157603232],[34.0347621197428,-1.5246691815880096],[34.03522585968572,-1.5245666484378702],[34.03543095506217,-1.5244150296286338],[34.035711866131706,-1.5244060975285065],[34.03588134730803,-1.5245042257452208],[34.03664834343269,-1.524629065879978],[34.03691140189701,-1.5251151494469057],[34.037125417883516,-1.5253781785375853],[34.0376114991871,-1.5256323690143165],[34.03821342386419,-1.5261897869672691],[34.03824470140035,-1.5265375998356523],[34.038405168590835,-1.526564325601102],[34.0391231028177,-1.5258330165762097],[34.039569057217335,-1.5257929190449822],[34.039676062150505,-1.5251731119838847],[34.03996146468529,-1.5250616309035696],[34.041111904902486,-1.5249323225722002],[34.04105836080003,-1.5247048560234622],[34.04064810994149,-1.5245443760898008],[34.040322593650394,-1.52437046739916],[34.0399212636081,-1.5241475215242943],[34.03874854023069,-1.5240092452096843],[34.03836505181972,-1.5238264421569732],[34.03807080496261,-1.5239378907856937],[34.03778981617519,-1.5241385506852712],[34.03743760154021,-1.524312485384617],[34.03708530054865,-1.5243035759781525],[34.036416477377585,-1.5241207110619364],[34.03562270564706,-1.5240092418063593],[34.03466403368259,-1.524111836175138],[34.0331702056315,-1.524312508870519],[34.03209114930686,-1.5244373204161599],[34.03087820504264,-1.524642458846097],[34.0300933951504,-1.5248341746338783],[34.02964756436078,-1.5257705884643062]]]},"id":"00000000000000000003","properties":{"class":1,"id":4}},{"type":"Feature","geometry":{"type":"Polygon","coordinates":[[[34.04145526633485,-1.5259132873543682],[34.04161572786716,-1.5259980002111897],[34.041838741730494,-1.5259757295174863],[34.04197693526037,-1.5261095151382167],[34.04240052346932,-1.5261674717258498],[34.04252537282817,-1.5261585636886876],[34.042592259378175,-1.5258330643894122],[34.04320766432536,-1.5258954676247847],[34.04354209407716,-1.5259043815624123],[34.04366252248232,-1.526096100218917],[34.04383640823997,-1.5262878447226556],[34.044077179124294,-1.5262789485232815],[34.04411729337847,-1.5258731865361261],[34.04437149155692,-1.525850849035091],[34.044795068622854,-1.525962348346064],[34.04516518701749,-1.526176406688446],[34.0456824153915,-1.526136259016574],[34.04564230182715,-1.5258909753666503],[34.04620414507658,-1.5253648108500917],[34.04673929945834,-1.525213191360692],[34.046984481889936,-1.5254450957003538],[34.04743932117126,-1.5258508815540734],[34.04743932117126,-1.5264082700899801],[34.047769316184876,-1.5266445724457947],[34.04803242749892,-1.5266223186986245],[34.04834457375266,-1.5263770538207806],[34.04833565044691,-1.5259311103611568],[34.04824199817564,-1.5255164275575532],[34.04813491832814,-1.5251686078455213],[34.04813491832814,-1.5249144740444076],[34.047666739959354,-1.5247628227038628],[34.04709156309128,-1.524571087094981],[34.046922102782816,-1.5242456103409392],[34.04624425839328,-1.5242366936834535],[34.045842954458266,-1.524388304371376],[34.04564230182715,-1.5245131181631297],[34.045187453564075,-1.5244195128836018],[34.04513399684576,-1.5238933259915666],[34.04488430511288,-1.5238710403930593],[34.04473268801502,-1.5240939737722112],[34.04446064347476,-1.5243704559746172],[34.04419760682149,-1.5247271557398383],[34.044095026570076,-1.5249367556826994],[34.04377394198697,-1.5243615126034118],[34.04357328479443,-1.5240850690339454],[34.04328789358241,-1.5241385563597238],[34.04314970204268,-1.5246245897867856],[34.042846461815536,-1.5249991692518274],[34.04270376518198,-1.5251641553572841],[34.041927896128946,-1.5251418910829653],[34.041647004234584,-1.5255699346830356],[34.04146410532492,-1.5258018414356607],[34.04145526633485,-1.5259132873543682]]]},"id":"00000000000000000004","properties":{"class":1,"id":5}},{"type":"Feature","geometry":{"type":"Polygon","coordinates":[[[34.04779158209428,-1.5292308807364394],[34.048054693343936,-1.529596527728294],[34.04825534065576,-1.5297971683693066],[34.048621025829725,-1.5298997049282812],[34.04898220542105,-1.5300825820473605],[34.04926757877593,-1.5303456674219842],[34.04973132981415,-1.5303679614088628],[34.05023519004572,-1.5305061886580669],[34.05126525217729,-1.5309520709730329],[34.05182706070536,-1.5312775905666889],[34.052616357158975,-1.5317234937319757],[34.05299987050201,-1.5319063299828544],[34.05342349237928,-1.531522858526481],[34.05419042566289,-1.5313979679739542],[34.0546140419947,-1.5313979684208936],[34.05503765635323,-1.531500557867303],[34.05542115948584,-1.5317234864020564],[34.05586703401728,-1.5319062998671376],[34.05673209405366,-1.5324191035406785],[34.05800298658201,-1.533128144164051],[34.05895274536192,-1.5334937571976286],[34.059782172286205,-1.5336765957829686],[34.060366275999826,-1.5336765798511025],[34.061597011194756,-1.5341849046526836],[34.06256457624479,-1.5343231611602077],[34.06353671935564,-1.5343855781484261],[34.06500821206023,-1.5344881199565754],[34.06567257666544,-1.5346085369620974],[34.066341439665976,-1.5349742006528881],[34.06682303157197,-1.5352150054481775],[34.068820744059785,-1.5351124518696848],[34.06910614010943,-1.5354379201443848],[34.06948958388139,-1.5353755186848743],[34.06979282023173,-1.5353353586018517],[34.069913213873185,-1.5347868950244365],[34.07132232589195,-1.5347690901467061],[34.071487237723545,-1.535134726155746],[34.07342248669997,-1.535170423727605],[34.07360532133099,-1.5352595742995245],[34.07354287552954,-1.535665347440876],[34.07319955029486,-1.5358659963469379],[34.07286064173111,-1.5361112892376962],[34.072352318994476,-1.5362138321572878],[34.072173984804564,-1.536334205451859],[34.07243702548797,-1.536476927631425],[34.07273583402206,-1.536962962490442],[34.07316386682554,-1.5372081756259128],[34.07417166455694,-1.5373286276803195],[34.07457292840382,-1.5374311494682582],[34.07483604709677,-1.537774531886236],[34.07532209676796,-1.5376317922228884],[34.07554502796132,-1.5372884783580716],[34.07602665602193,-1.5372661707768551],[34.07596862970372,-1.537631843140308],[34.07636997056593,-1.5376318397157556],[34.07689619677251,-1.537350880062709],[34.07737773270768,-1.537043225592824],[34.078006495174094,-1.5370654993771813],[34.07834980223004,-1.5367578302526628],[34.07804659445671,-1.5362093645501798],[34.07760065885283,-1.5357857414488645],[34.0777032862539,-1.5355628178388765],[34.07810453449055,-1.5354780763266695],[34.07864859130327,-1.5356831718413846],[34.07931744368699,-1.5353754825160661],[34.079558205551145,-1.5353354077514993],[34.07987933364893,-1.5357411723923695],[34.080039812317494,-1.5348894449755908],[34.083009593437,-1.5349474628196398],[34.08286687490172,-1.5337523852815265],[34.08171645336743,-1.5337122773497036],[34.0816361730748,-1.533386733496527],[34.081654013145965,-1.533203917710307],[34.08278659562696,-1.5332039588385167],[34.0838568102151,-1.5328962747295616],[34.08341090316278,-1.532615349447085],[34.083129969550846,-1.5324503416710207],[34.08266621905753,-1.5325751665308363],[34.08205983134127,-1.5325930430916892],[34.08201964887955,-1.5322095530807174],[34.08238086563423,-1.5319420278139746],[34.08375427472384,-1.5315183756537512],[34.084699601688804,-1.530804930397656],[34.085729612890816,-1.5303991762926954],[34.086376241576126,-1.530176228588813],[34.08635390017321,-1.529890815069727],[34.08502512896738,-1.5298506806844354],[34.08375427472384,-1.5300959392298648],[34.08310771229978,-1.530439265327165],[34.082541424830694,-1.5306845138797556],[34.081654013145965,-1.5307648063574126],[34.080606115398986,-1.5307870693109986],[34.08002197192898,-1.5309921945826785],[34.0791703016828,-1.5312151707367332],[34.078488025218995,-1.5313355505762891],[34.07727518989533,-1.5312374522872911],[34.076427996627594,-1.531335589318917],[34.07606675617917,-1.5317056894639778],[34.074956434052034,-1.5320311780459916],[34.07441244006977,-1.5317859182627578],[34.074287549534134,-1.5310145154762218],[34.074853888504585,-1.5305462912544925],[34.076610740248576,-1.5304259376775922],[34.07792179387693,-1.5302386453697303],[34.0781625594434,-1.5297525883971035],[34.0796340700429,-1.529609899510171],[34.080481318338826,-1.5295474897400003],[34.08068639660293,-1.5290792450582957],[34.081328473771556,-1.5288785874430562],[34.08149345237919,-1.528673468644956],[34.081087716604046,-1.5284728510829493],[34.08070423686083,-1.528147328060139],[34.07943340704992,-1.5282676818227248],[34.07745351406539,-1.5281071639739976],[34.07646809660755,-1.527803950806612],[34.07509466220817,-1.528009094560164],[34.07311926246918,-1.5282543309311447],[34.071884095416905,-1.5283747236861964],[34.071161746850095,-1.5284549728453967],[34.07026997574514,-1.5285174326798292],[34.070131740244456,-1.5289053262179797],[34.069364771539476,-1.5291060358994535],[34.068820744059785,-1.5288652012358266],[34.067911107201674,-1.5290079200076394],[34.06720656994759,-1.5292487086196376],[34.066702633834815,-1.5295563805999066],[34.065913374710284,-1.5295741985772495],[34.06528911678201,-1.52977931905537],[34.06484320349754,-1.530042411135546],[34.06429923390966,-1.5302252422352483],[34.06365261790167,-1.530207429656028],[34.06290794167625,-1.5301450017671459],[34.062221294486925,-1.529699099880482],[34.0612536408105,-1.5296411210708314],[34.060063093161624,-1.5288072561745851],[34.059817776038656,-1.5284817473136674],[34.05899285305661,-1.5284639260189778],[34.057842384000296,-1.5281517661075963],[34.057597145859894,-1.5277860969097674],[34.05767744740282,-1.5274829077746122],[34.058225875303386,-1.5271172598431915],[34.05838639223318,-1.526934450775947],[34.05796279347575,-1.5264662249555074],[34.0569907607019,-1.5259623509873401],[34.05624602989885,-1.5255164317276193],[34.05519817891155,-1.5251909291369206],[34.054208271124914,-1.524477472341556],[34.05370434792232,-1.5244373111429408],[34.05307567219451,-1.5246424669945078],[34.05265204869722,-1.5249456497328173],[34.05210800615835,-1.5247628666114268],[34.05184490663108,-1.5243793850507434],[34.05144362739825,-1.5248876848950967],[34.05130094424568,-1.5251641741733013],[34.051300944245675,-1.525837489973959],[34.0515416953793,-1.5259980353407196],[34.051666532197004,-1.5263636636136277],[34.05164426723595,-1.5264840375222775],[34.05174683897694,-1.526791717831423],[34.051363320350646,-1.5270325268356948],[34.05103784238408,-1.5271752026341623],[34.050877312482974,-1.527460610082298],[34.050413567286476,-1.5274606335127752],[34.04986951135962,-1.5275854749776892],[34.049548532133564,-1.5276256146585927],[34.04924531322773,-1.5278886796213222],[34.048942093311325,-1.5280714925729562],[34.048455987525095,-1.528254332943835],[34.04821522822559,-1.528374706480867],[34.04793427075078,-1.5286199855825726],[34.04781393298259,-1.5289231992846348],[34.04779158209428,-1.5292308807364394]]]},"id":"00000000000000000005","properties":{"class":1,"id":6}},{"type":"Feature","geometry":{"type":"Polygon","coordinates":[[[34.01520002167358,-1.5236257971475946],[34.01608740164174,-1.5238264560712866],[34.01727801429914,-1.523888886178184],[34.01767927404284,-1.524660314062786],[34.01798251302139,-1.5250437879294436],[34.018588987954224,-1.5252667543003264],[34.0198018407118,-1.5250839264799492],[34.02030569650772,-1.5244774804421175],[34.020042590108176,-1.5237640051055092],[34.01955658511182,-1.5230728620551721],[34.018004786211925,-1.5230951399081523],[34.015703902888895,-1.5232200097553426],[34.01520002167358,-1.5236257971475946]]]},"id":"00000000000000000006","properties":{"class":1,"id":7}},{"type":"Feature","geometry":{"type":"Polygon","coordinates":[[[34.05426622636311,-1.5185290330604821],[34.054346445869406,-1.5198712318010894],[34.05450705462594,-1.5200941884347627],[34.055033152539934,-1.5199291667291608],[34.0559606784381,-1.5205177651204327],[34.0562237660589,-1.5210885528416305],[34.05711117130521,-1.5217574247884573],[34.05763733912781,-1.5214943321176133],[34.05765509893821,-1.521208974793387],[34.05679004768336,-1.520580227994248],[34.056870349939125,-1.5200896930156873],[34.05791826663114,-1.520740748546043],[34.05880557036455,-1.5209860013766552],[34.06082555188762,-1.5208834145256949],[34.06169064971338,-1.5205356403267276],[34.0628410700644,-1.5203528305067788],[34.06564581184688,-1.5209414257490805],[34.0662924136707,-1.5198623266979405],[34.06675616284139,-1.5192558431326482],[34.06804934608194,-1.5185825387870182],[34.068593293216765,-1.5178913608069076],[34.069418214013204,-1.5174231747655451],[34.07034576303545,-1.517200212975633],[34.07258868134965,-1.516286090026706],[34.07361424215627,-1.5159382849335643],[34.07367668790862,-1.5155146863155065],[34.072000068275365,-1.5155147057994074],[34.07066683875779,-1.515371964857272],[34.070185182266904,-1.5152917372445085],[34.06948066265093,-1.5159605550649167],[34.06885192610705,-1.5165134865899093],[34.06822768837086,-1.5168345923046103],[34.067826311521365,-1.5171199637192796],[34.067300202685715,-1.516513503106273],[34.06560570708811,-1.5166562161963413],[34.063911264857005,-1.5172047040868646],[34.06138738632104,-1.5172670726055495],[34.06025929539967,-1.517244774757549],[34.059148949996526,-1.5178155961527497],[34.05747231718303,-1.5176951468058268],[34.056344177677936,-1.51744993345684],[34.05509119223001,-1.5179582776777703],[34.05426622636311,-1.5185290330604821]]]},"id":"00000000000000000007","properties":{"class":1,"id":8}},{"type":"Feature","geometry":{"type":"Polygon","coordinates":[[[34.08735721911944,-1.5128481089838592],[34.08741515320783,-1.5136775488908154],[34.08810186471506,-1.5135972316566368],[34.08893128024078,-1.513334145976177],[34.089881055334935,-1.5132717521463528],[34.09005943967359,-1.5123576332375361],[34.08975618608907,-1.5111001657776792],[34.08929246947311,-1.5103064525294132],[34.089029392698095,-1.5100032457284782],[34.08807960868391,-1.510248453664025],[34.087575703494025,-1.5108370735993077],[34.08737505806555,-1.5117913263103921],[34.08735721911944,-1.5128481089838592]]]},"id":"00000000000000000008","properties":{"class":1,"id":9}},{"type":"Feature","geometry":{"type":"Polygon","coordinates":[[[34.11836577346679,-1.5775719627100777],[34.11844610613852,-1.5780580286088661],[34.119012339057015,-1.5784236819923552],[34.11949399090339,-1.5786689426985612],[34.119498406599575,-1.5792798242396613],[34.119699065796496,-1.5797257581497046],[34.12010038285496,-1.5802920205787148],[34.12062652499334,-1.5806978062962869],[34.12155405959529,-1.5808226967006744],[34.12232101135264,-1.580452571694042],[34.123413515766345,-1.580697829906922],[34.12393522315073,-1.5809831938667478],[34.125589569287136,-1.580858328856249],[34.12603543854075,-1.5813444138514317],[34.12664187153957,-1.5815093636205897],[34.1286975319606,-1.5815495013615215],[34.129303947100574,-1.5813042300759594],[34.12983012059218,-1.5806131025407366],[34.13031171481606,-1.5802474164760731],[34.13011107917041,-1.5798416502489434],[34.13039203687522,-1.579516138792538],[34.13099844064572,-1.579475990405107],[34.13140420757238,-1.5798015085761983],[34.13196602916255,-1.5802876054499941],[34.13261266730967,-1.58048820633473],[34.133138821536605,-1.5806933407893566],[34.133865600454676,-1.5803678293290842],[34.134391832288614,-1.5806086320883195],[34.13519891891345,-1.5810545190510625],[34.135841034123274,-1.5812998164834484],[34.13721439651392,-1.5816654237432346],[34.13838270598227,-1.5794314369469278],[34.13769603627908,-1.5784548774881504],[34.137094007396506,-1.5780491254210292],[34.13596142491064,-1.5777236235508836],[34.13442749164373,-1.577157270327416],[34.133259215924944,-1.5764661549422045],[34.13236737667702,-1.5758998470403551],[34.132006189465855,-1.5753736368330047],[34.13139979245765,-1.5747627628349798],[34.130026341679724,-1.574437262816357],[34.12877777054577,-1.5743168415917261],[34.12607110119316,-1.574116172366208],[34.124617497064456,-1.5738753848351437],[34.123449179452905,-1.5742811737579354],[34.12264207281754,-1.574526394397614],[34.1215942245243,-1.574361425534814],[34.11941365916223,-1.57452642796412],[34.11888750996892,-1.5757838868335252],[34.11989972454829,-1.575864157387871],[34.12046161763499,-1.5764349130572701],[34.121714549374026,-1.5768808270764356],[34.122642072817534,-1.5773668699837522],[34.12276689672388,-1.5778975069530874],[34.12260190835389,-1.5785440418700614],[34.12220060239511,-1.5791951256240166],[34.12086734693945,-1.5789944073419564],[34.1198595588668,-1.5782230110677418],[34.11897225789919,-1.5776121323701053],[34.11836577346679,-1.5775719627100777]]]},"id":"00000000000000000009","properties":{"class":1,"id":10}},{"type":"Feature","geometry":{"type":"Polygon","coordinates":[[[34.130886958431994,-1.5920239533517724],[34.131854548142485,-1.5929603711816027],[34.13238079168902,-1.5942178384397074],[34.132420866902905,-1.5952345009370443],[34.13326813087679,-1.5963314142196672],[34.135002709058206,-1.5970582633356911],[34.136496474268476,-1.597749387843582],[34.137749523349974,-1.5981953483789364],[34.13896239785457,-1.5983157329451096],[34.14033129810508,-1.5984762612029682],[34.14190537190548,-1.5984762590642472],[34.142957738824194,-1.5980704676754114],[34.14424643862298,-1.5976646679533844],[34.14529427892363,-1.5969735075328695],[34.14626638335762,-1.5963225152181053],[34.147514967422275,-1.595551069036267],[34.14884825412405,-1.5948197926724774],[34.14953042477776,-1.594168737505832],[34.14706903439762,-1.5933973373235026],[34.1440413345368,-1.5928711589203408],[34.14157987936327,-1.5908021461214479],[34.140367040013004,-1.5902313608092322],[34.138632395043665,-1.589705195142428],[34.136857728429476,-1.5889738923336416],[34.13576521671152,-1.5892593159136057],[34.136777412118114,-1.5899103316672598],[34.13798588488401,-1.5906817344582345],[34.138998055405374,-1.5914130572896275],[34.13960448631007,-1.591858965473419],[34.14109826031138,-1.592955878623466],[34.13935921466224,-1.5936871986200323],[34.13843177787543,-1.5942936053119585],[34.133829940877796,-1.5919837997459918],[34.13209534018109,-1.5906014731135163],[34.13100735582063,-1.5910116903893967],[34.130886958431994,-1.5920239533517724]]]},"id":"0000000000000000000a","properties":{"class":1,"id":11}},{"type":"Feature","geometry":{"type":"Polygon","coordinates":[[[34.113237836887116,-1.5780625067044436],[34.11408952673011,-1.5789141629200292],[34.1150170434339,-1.5807022900476448],[34.1150170434339,-1.5819597329113848],[34.11530237901711,-1.5828961636990417],[34.11485645685136,-1.5835026081876784],[34.11530237901711,-1.5842338767204596],[34.11622988328912,-1.5851301735260253],[34.117563122178375,-1.5856964659930335],[34.11845052188585,-1.5864678708886866],[34.11897667362084,-1.5872794548159819],[34.11917733397513,-1.5877654808387656],[34.118936592447234,-1.5884566322352622],[34.118776012821456,-1.5888624591342402],[34.11631463370899,-1.5893930743949005],[34.11458003665659,-1.5893930526534321],[34.11602921639735,-1.5904498669218397],[34.117081544971036,-1.5908556526573945],[34.11688087996812,-1.5917875748269346],[34.117928782863444,-1.5925589988527578],[34.11938249450347,-1.5930450862005108],[34.12063544119107,-1.5939814621128814],[34.1218438750573,-1.594628071197953],[34.12345809537236,-1.5948732972503568],[34.124751234035855,-1.5945879026129464],[34.125598484995535,-1.5943426596887873],[34.12640556524149,-1.5945031812766304],[34.12737320292751,-1.59474841621139],[34.12717256075902,-1.5957249859919471],[34.12689159304674,-1.5963715619460561],[34.12362308218023,-1.5960906423302823],[34.12330202419829,-1.597878742476861],[34.12475573438764,-1.5986100100770935],[34.12596411319373,-1.5987304457831968],[34.12640998060019,-1.5997471055419992],[34.12628966199851,-1.6004739204556033],[34.12899182466632,-1.6025073070165905],[34.13012440961011,-1.6041304016857527],[34.13218457571369,-1.6054681107891364],[34.13476633971817,-1.6055885058081725],[34.13803487209295,-1.6064803158248144],[34.13956882899871,-1.6071714732458013],[34.140621138252286,-1.6077779636609781],[34.14263666464157,-1.6073320233246093],[34.14485733362848,-1.60720716779847],[34.14671232034813,-1.6073677230278673],[34.14905776153853,-1.6080990036551828],[34.15079237595852,-1.608625184954318],[34.15252695703,-1.6090309296249725],[34.15365508743418,-1.6092315772378938],[34.15567507620385,-1.6088659431500925],[34.15866266165128,-1.6069976044779182],[34.161039366816674,-1.6050846559696137],[34.16342059262377,-1.6036622001817096],[34.166082602131524,-1.6023645561216306],[34.168989979369265,-1.6011026878173886],[34.169837239475086,-1.6013836030155248],[34.169837239475086,-1.602400237971143],[34.170604205414726,-1.602480502828835],[34.171250736419076,-1.600857419756307],[34.17161193628283,-1.5997203649883758],[34.17100546594903,-1.598337991499961],[34.17007801503399,-1.598378136905908],[34.168664499688326,-1.5993546669079923],[34.165275537092,-1.5994795247353248],[34.16236820976319,-1.599644523239173],[34.157365085415464,-1.598672431341203],[34.155304984575395,-1.598511946797301],[34.15239767527076,-1.5974149592805407],[34.15086376658823,-1.5975799595200866],[34.14920937397514,-1.5982310201465968],[34.14674797483819,-1.599287834199181],[34.1472340629811,-1.5996534710851105],[34.14876794847885,-1.599122797118662],[34.150342044941155,-1.5995285839653353],[34.15203648329379,-1.5998139731749563],[34.15324933561022,-1.6001350181657132],[34.15353030620986,-1.600580947604595],[34.1531289678771,-1.6011918127392384],[34.15082802883654,-1.6012319540435398],[34.14909349999139,-1.600585398340556],[34.14731428510019,-1.6004248484970318],[34.14485283427793,-1.6002242292363122],[34.14150406676907,-1.6002242094548393],[34.140496339005935,-1.600469467738043],[34.13823557504246,-1.5999834435740374],[34.13552884936657,-1.5984405980735725],[34.134280354261506,-1.5983603371332598],[34.1330674168906,-1.5973837946141458],[34.13181447267745,-1.5957606525177572],[34.131047516549984,-1.5945432973249019],[34.129513584768105,-1.5909715696307287],[34.12789488746327,-1.5879661671375276],[34.12652146833587,-1.5870743113682657],[34.12490730270854,-1.5860977563134764],[34.12490730270854,-1.5844345450603536],[34.12426069434812,-1.5833777198138308],[34.12385498026747,-1.5816743693924529],[34.1218795393629,-1.5814290802905577],[34.1201048834382,-1.5815941088265393],[34.11763895485715,-1.579605333530152],[34.11711279534193,-1.5777771058697476],[34.11557888192623,-1.57741146144909],[34.11384427076985,-1.5772910832657903],[34.113237836887116,-1.5780625067044436]]]},"id":"0000000000000000000b","properties":{"class":1,"id":12}},{"type":"Feature","geometry":{"type":"Polygon","coordinates":[[[34.07818481790741,-1.5379528511809488],[34.078470184525436,-1.5385593361726584],[34.07968308883531,-1.5394556176797425],[34.08081127833457,-1.5400218720657342],[34.08226490603787,-1.5405079323513289],[34.08359822007106,-1.5408334432451967],[34.084565805560985,-1.5409538339636373],[34.08395934559047,-1.5401422993867593],[34.08327268767227,-1.5394912483157417],[34.08177889354592,-1.5388045869297304],[34.080004131536946,-1.5384790518379432],[34.07818481790741,-1.5379528511809488]]]},"id":"0000000000000000000c","properties":{"class":1,"id":13}},{"type":"Feature","geometry":{"type":"Polygon","coordinates":[[[34.081457857123105,-1.544164387486869],[34.082389785597044,-1.5451810668188313],[34.08295165653486,-1.546113012811477],[34.083763194551615,-1.5469647108255984],[34.0849314295599,-1.5473303318122749],[34.08610423674498,-1.5476959855227104],[34.087352716908654,-1.5480215044823749],[34.0881999780697,-1.5480215059469935],[34.08921219588519,-1.5475309900269805],[34.08868604110617,-1.5467194726032012],[34.087754092367554,-1.5452969812721409],[34.08533281573352,-1.543798761248994],[34.081457857123105,-1.5429470881822351],[34.081457857123105,-1.544164387486869]]]},"id":"0000000000000000000d","properties":{"class":1,"id":15}},{"type":"Feature","geometry":{"type":"Polygon","coordinates":[[[34.09928083726708,-1.508901825118688],[34.09992745423607,-1.5102395385077143],[34.100573981655224,-1.51125622777381],[34.10158172965734,-1.5115817216034655],[34.10287484120267,-1.5108905989901127],[34.10396290913457,-1.5100745688000983],[34.104649580201816,-1.5096687685316545],[34.10581788576337,-1.5096688202778235],[34.10723145079436,-1.5096688094857684],[34.108925848290546,-1.5097891727844288],[34.11074072337104,-1.5093432528080695],[34.11268048481284,-1.5088528008355784],[34.114695954905585,-1.5091381547732947],[34.11715737805346,-1.5097044815301222],[34.11901683969439,-1.5100700875096889],[34.1200647178478,-1.5103911486740753],[34.12293188479286,-1.5103911531340073],[34.12724830047038,-1.509860564129223],[34.12958932251789,-1.5098203732770188],[34.12983462069113,-1.510306455442285],[34.129794459422776,-1.511323106379846],[34.129067647761566,-1.5125805589617205],[34.13068182400686,-1.512700955512181],[34.131729736783946,-1.5118492797839647],[34.13172973678394,-1.5094948657210363],[34.13189029340457,-1.5085584962310823],[34.132171160672534,-1.5074214297473594],[34.133504419232445,-1.5075417906653157],[34.13399049376655,-1.5082731109356375],[34.13447206581781,-1.5092897669064527],[34.13548427571389,-1.5104268699010748],[34.1380259576115,-1.5106676361378328],[34.14000138519437,-1.5120053595809726],[34.14113400191573,-1.5121703205715298],[34.14137476921913,-1.511559422731301],[34.142422642850704,-1.5114792143806353],[34.14395661011355,-1.5118849699823707],[34.14436231882987,-1.5085138926200197],[34.14290866939056,-1.508023357970675],[34.142543024864516,-1.506319995049808],[34.14266340671782,-1.5043713892859731],[34.143671195188766,-1.502458416002204],[34.14520514123643,-1.5013213747080987],[34.14818823467689,-1.5003046674234566],[34.146493808951334,-1.499292473508977],[34.14621290133186,-1.498070689278382],[34.145280950722665,-1.4968533274048852],[34.14532110510559,-1.4953907444219758],[34.14596764763646,-1.4945791703743188],[34.14850928911255,-1.493968302322349],[34.14951709720239,-1.4941733910610293],[34.149802493640955,-1.494904720860188],[34.14948144380636,-1.496202331620088],[34.14806786019163,-1.4968132040819868],[34.148388915055556,-1.4975846549055254],[34.149441291274435,-1.4989625137114262],[34.15020826096742,-1.4993281635502402],[34.15065417847913,-1.5005053179787666],[34.15137648716805,-1.5005900786158364],[34.15287032101301,-1.5002600835385267],[34.15307099097796,-1.4988822443137149],[34.15287032101301,-1.4969737090880737],[34.15254478312802,-1.4960373455414122],[34.15121596519388,-1.4948200037046953],[34.15040443777986,-1.4938478789305305],[34.14931641933267,-1.4932370023727595],[34.14721615094266,-1.4926305786621608],[34.14580711604056,-1.4928312155319157],[34.1443133350536,-1.4935223978377201],[34.14277937385208,-1.4942982985755744],[34.140804007040515,-1.4955156040526618],[34.139350300311506,-1.4961666178533806],[34.13620220600401,-1.4979146151688585],[34.13152018916304,-1.498850983340541],[34.127484689475295,-1.4990159894524362],[34.125388923160045,-1.499015997892531],[34.123774652399774,-1.4997473036325526],[34.124662076076895,-1.500643547878797],[34.125750051903665,-1.5014952793745149],[34.127850310044906,-1.5016959055981403],[34.12987028184468,-1.501450647733683],[34.131239234965534,-1.5011251346481502],[34.132006189465855,-1.501776195396002],[34.13196602916255,-1.5023870932415113],[34.13079780652463,-1.5029533849010344],[34.12910330921773,-1.5036044412380256],[34.12756934443916,-1.5038496835339004],[34.12538892316005,-1.5036489805135493],[34.1233332724201,-1.5036891570289335],[34.12224076703698,-1.5042197547745868],[34.123493759041345,-1.5044605455619084],[34.1249474661482,-1.5049867615374206],[34.12631640891392,-1.5051115849389816],[34.12793054938215,-1.5048262035346516],[34.12857713149493,-1.5048663132445868],[34.12882243241523,-1.5055129205111417],[34.1296294838774,-1.5055129047990048],[34.13144436812538,-1.5056332806877528],[34.13144436812538,-1.5062843090774707],[34.13087804324521,-1.5066098775851844],[34.12950908465317,-1.5067748252952489],[34.12720822296286,-1.5067346954347878],[34.12510794990446,-1.5069799421756729],[34.122931884792855,-1.5085228255054959],[34.121032338473846,-1.5083221742872805],[34.11804478174086,-1.5069799757964353],[34.11590879906454,-1.5070646546194988],[34.113487510480375,-1.5065786439869777],[34.11106182593177,-1.5060925632617395],[34.10888576266518,-1.5064582438642162],[34.107351794743145,-1.507229677460003],[34.10686574688874,-1.5080456977660426],[34.105777798762055,-1.5078806719872795],[34.105858057676976,-1.5067034963891104],[34.106058662188154,-1.5054861468198402],[34.103316320969846,-1.506868452370541],[34.10420369049112,-1.509022225761873],[34.10347684309128,-1.5095082801761173],[34.1018225173437,-1.5094681495149866],[34.09928083726708,-1.508901825118688]]]},"id":"0000000000000000000e","properties":{"class":1,"id":16}},{"type":"Feature","geometry":{"type":"Polygon","coordinates":[[[34.178621608603194,-1.5049599900010402],[34.18064163175838,-1.5071939867423876],[34.1823360944554,-1.5087769727969609],[34.18338391630014,-1.507920841617174],[34.183464191101876,-1.506823916898235],[34.18338391630014,-1.5063779540064768],[34.18471726638131,-1.5061327409081464],[34.185444053926894,-1.5054861319322503],[34.18661233244887,-1.5054817253243673],[34.18774046033268,-1.502922178792499],[34.18834690277334,-1.501584446004346],[34.187013691339125,-1.5020303766329017],[34.18572500898662,-1.5032075325671637],[34.18519882212472,-1.5037381747155447],[34.18507841221662,-1.504875274506327],[34.183869976582976,-1.5050402427819138],[34.18205071617819,-1.5042688430354407],[34.18043652561056,-1.503617803408837],[34.1786617481369,-1.5038630148035992],[34.178621608603194,-1.5049599900010402]]]},"id":"0000000000000000000f","properties":{"class":1,"id":17}},{"type":"Feature","geometry":{"type":"Polygon","coordinates":[[[34.187049329885525,-1.4937854896610696],[34.18781631889445,-1.4949225751799764],[34.18999675850537,-1.4951633651646186],[34.1914504969607,-1.495774216156943],[34.19322519185999,-1.4963004169662926],[34.194719010490694,-1.4967864205116972],[34.195851618329996,-1.4971520672246956],[34.19653826920203,-1.4967463277713646],[34.19665866376688,-1.4958946471436556],[34.19536553795108,-1.495123231664905],[34.19326532487854,-1.4947976713836222],[34.19141036313213,-1.494066389840395],[34.18931005767498,-1.4937854651435742],[34.18785645432687,-1.4933796779090047],[34.187049329885525,-1.4937854896610696]]]},"id":"00000000000000000010","properties":{"class":1,"id":18}},{"type":"Feature","geometry":{"type":"Polygon","coordinates":[[[34.17748903839972,-1.4967552171503906],[34.17797063282078,-1.4971609932997907],[34.178697474852704,-1.4970406467471244],[34.18019119530144,-1.496875623567488],[34.18164492249335,-1.496835504223405],[34.18164492249335,-1.4963494539287046],[34.179870168847174,-1.4956181755207818],[34.17841649785237,-1.496064078464064],[34.17748903839972,-1.4967552171503906]]]},"id":"00000000000000000011","properties":{"class":1,"id":19}},{"type":"Feature","geometry":{"type":"Polygon","coordinates":[[[34.18757100870582,-1.4892773231495204],[34.19007702740635,-1.4899238739989773],[34.19467887812105,-1.4920954898182603],[34.1992583494897,-1.4940619590269577],[34.2056972981029,-1.49578762611361],[34.20830138815022,-1.4961488276041153],[34.21049973924096,-1.4960060972315048],[34.212274482066825,-1.4953952301192481],[34.21281849424404,-1.4947040393928877],[34.212296792314504,-1.4942983023605871],[34.20910408011888,-1.4924521908110924],[34.20534946956978,-1.4904456323324204],[34.201193577948125,-1.4883765753281768],[34.19913346176747,-1.4880912089108542],[34.198611765186904,-1.4883186050819117],[34.198326438552044,-1.4890677330626536],[34.197742292437376,-1.4885192928309654],[34.19711801124545,-1.4882561936978533],[34.196391148352056,-1.4886218150707224],[34.196573988818436,-1.489067725265769],[34.19679696035485,-1.4896786608255697],[34.19631088508786,-1.4901245843033093],[34.196047780587186,-1.490026432519593],[34.19524072966572,-1.4897009131486665],[34.19435332164008,-1.4892550002219647],[34.19308247768274,-1.4888269846517999],[34.19096439278726,-1.4874089860509685],[34.190295517973695,-1.4875293586270577],[34.18932796134654,-1.4881982261026607],[34.18860112032752,-1.488871547472127],[34.18763346061946,-1.4885282183422714],[34.18757100870582,-1.4892773231495204]]]},"id":"00000000000000000012","properties":{"class":1,"id":20}},{"type":"Feature","geometry":{"type":"Polygon","coordinates":[[[34.20867601256181,-1.4829097453368763],[34.20896139115993,-1.4832753782723191],[34.21004936753686,-1.4839442247263621],[34.21119985110001,-1.4840066912050214],[34.21190436867,-1.4840646442626866],[34.212167426732776,-1.4846755525730826],[34.212328009685976,-1.4854871031227586],[34.21295668112527,-1.4852641593205826],[34.213683579639344,-1.4848360525077817],[34.213741517498455,-1.4844704107921483],[34.21273374969783,-1.483921945374433],[34.21129791552646,-1.483293188311302],[34.20990668008008,-1.4831550016489585],[34.20867601256181,-1.4829097453368763]]]},"id":"00000000000000000013","properties":{"class":1,"id":21}},{"type":"Feature","geometry":{"type":"Polygon","coordinates":[[[34.23208625704234,-1.4886441155138952],[34.232411761511706,-1.4898614558465395],[34.23511396271303,-1.491649553403002],[34.23519427608973,-1.4927019252826565],[34.23596119312438,-1.4931076803768522],[34.23709378943403,-1.4931478084698084],[34.2398763282204,-1.4936740092166911],[34.24076811992857,-1.4943250462947986],[34.242743496833675,-1.4943250467755362],[34.244924043886826,-1.493388630458296],[34.24568655290352,-1.492331810300532],[34.24483924488496,-1.491680779436483],[34.24257855868462,-1.4911144788027886],[34.24149046809509,-1.490262815287064],[34.240402449088755,-1.4902226701946095],[34.23963548527014,-1.4898570377253808],[34.2396310754636,-1.4888849292313822],[34.23947054139713,-1.4881937672337389],[34.23834238500599,-1.4876230018893593],[34.23741486579801,-1.487177069695618],[34.23692884088098,-1.486445796611145],[34.23632238731749,-1.486936271776178],[34.234828582497556,-1.487181536531724],[34.23370045246274,-1.4884389900765047],[34.23208625704234,-1.4886441155138952]]]},"id":"00000000000000000014","properties":{"class":1,"id":22}},{"type":"Feature","geometry":{"type":"Polygon","coordinates":[[[34.18529691492581,-1.5375292645976093],[34.185341463956725,-1.538746604001715],[34.186068331314516,-1.5392772520941669],[34.18659001582377,-1.5396829971947876],[34.18743728000577,-1.5395581179508482],[34.187883182987576,-1.5390319651586486],[34.18731687309369,-1.5385013608801348],[34.186389420511645,-1.5378547990685294],[34.18529691492581,-1.5375292645976093]]]},"id":"00000000000000000015","properties":{"class":1,"id":20}},{"type":"Feature","geometry":{"type":"Polygon","coordinates":[[[34.23428902906866,-1.4981687826096588],[34.23481518275039,-1.4989357684724496],[34.23642941382151,-1.4989357672738564],[34.23764231539439,-1.4990159751008814],[34.23913607330012,-1.499301405661049],[34.23917618579247,-1.4997472852638392],[34.239055848261536,-1.5005588599308763],[34.2386901704313,-1.5007238197951414],[34.23877048060218,-1.501330279106578],[34.239577564140085,-1.5011697481849975],[34.24010368676337,-1.501495283007829],[34.24119170939908,-1.501250029387352],[34.2416777959885,-1.501250036803584],[34.24216379513799,-1.5016959103883776],[34.24252504912215,-1.5018162965397623],[34.24385828419302,-1.5018564248803825],[34.243777978584376,-1.5023424710375881],[34.24240463128937,-1.5029132329256938],[34.2416777959885,-1.5033591753411555],[34.24155737701644,-1.503849662233807],[34.241677795988494,-1.5044962181816786],[34.24192304314075,-1.5057581546108634],[34.24232881885241,-1.5062040782736483],[34.243135870325126,-1.5064047604633084],[34.243577341448045,-1.5059989275645953],[34.2440634150881,-1.5054727864409052],[34.244910645649874,-1.5045764904968775],[34.245673154780675,-1.504331220094763],[34.24599860988101,-1.5038452056175564],[34.24696623398971,-1.5033591758274123],[34.24736757742048,-1.5023023522487362],[34.24700642777165,-1.5014907871908503],[34.24728735975632,-1.5005945409880008],[34.249302870377306,-1.5003492717252918],[34.24619483210821,-1.4994574711155864],[34.24502656577285,-1.499782955902806],[34.24389839457035,-1.5001084748890636],[34.24293082210598,-1.5001129184748505],[34.2423645202429,-1.5001530821330666],[34.2414771541466,-1.5002734485459948],[34.240710114728,-1.5001129282694108],[34.24022410768996,-1.4993816743294732],[34.23981832244229,-1.49869051472699],[34.239457142344236,-1.498570120420593],[34.23739705652112,-1.498369426014984],[34.23658995333783,-1.497838786331101],[34.23497572515901,-1.4979235227291774],[34.23428902906866,-1.4981687826096588]]]},"id":"00000000000000000016","properties":{"class":1,"id":21}},{"type":"Feature","geometry":{"type":"Polygon","coordinates":[[[34.101345442847006,-1.5233002485139255],[34.101416787599476,-1.5333198618040031],[34.11803136460159,-1.5337256274660755],[34.11726887719585,-1.5232913309869245],[34.101345442847006,-1.5233002485139255]]]},"id":"00000000000000000017","properties":{"class":2,"id":100}},{"type":"Feature","geometry":{"type":"Polygon","coordinates":[[[34.178849037437104,-1.5300290751364303],[34.18475290583742,-1.529476105711259],[34.18763346061946,-1.5244997930549937],[34.17912101780677,-1.5229836792476787],[34.178849037437104,-1.5300290751364303]]]},"id":"00000000000000000018","properties":{"class":2,"id":101}},{"type":"Feature","geometry":{"type":"Polygon","coordinates":[[[34.202294968186386,-1.507064677819292],[34.202914801802386,-1.5084469879305642],[34.20401625577784,-1.511831481443322],[34.20978180716133,-1.5117556288306415],[34.210053863630215,-1.5069219590420537],[34.202294968186386,-1.507064677819292]]]},"id":"00000000000000000024","properties":{"class":2,"id":110}},{"type":"Feature","geometry":{"type":"Polygon","coordinates":[[[34.00565312756945,-1.5320891476973886],[34.00712904159232,-1.5330211136485885],[34.00781576412112,-1.5334357983733682],[34.0086050167771,-1.533605246749053],[34.009220396156024,-1.5336052486361291],[34.0101478784593,-1.5336765860338297],[34.010905909063766,-1.533814803231095],[34.011967192343874,-1.5343633135106467],[34.01286344551618,-1.5347111099445858],[34.01426808488525,-1.535090143457478],[34.01512869424448,-1.5358481746078048],[34.01560579632075,-1.535571727347548],[34.01533383484068,-1.5342963899927233],[34.014508848886436,-1.5337434518925601],[34.01268958567145,-1.53298095260807],[34.0121723400477,-1.5324637437358233],[34.011418740913534,-1.5316031292450334],[34.01059380458292,-1.530947602038389],[34.00966632681077,-1.531705641756375],[34.00867192822034,-1.5316387645622693],[34.00794950309399,-1.531464894017052],[34.00606336587346,-1.5315005588804014],[34.00565312756945,-1.5320891476973886]]]},"id":"00000000000000000019","properties":{"class":3,"id":102}},{"type":"Feature","geometry":{"type":"Polygon","coordinates":[[[33.99456332674015,-1.5329230242083518],[33.99494232247431,-1.5348894927986834],[33.995357030611885,-1.53648138775308],[33.99553092345795,-1.5380331182531892],[33.99693557436954,-1.5382739287883156],[33.99738147998089,-1.536891592065592],[33.9975197408898,-1.535063344840939],[33.99724321886276,-1.5334402850512785],[33.99456332674015,-1.5329230242083518]]]},"id":"0000000000000000001a","properties":{"class":3,"id":104}},{"type":"Feature","geometry":{"type":"Polygon","coordinates":[[[33.95621950150022,-1.5225422132361925],[33.95625514566512,-1.5231798751747259],[33.958177017685045,-1.5231263451797679],[33.959015357080474,-1.522974771564652],[33.958810260246295,-1.5226269489253588],[33.95621950150022,-1.5225422132361925]]]},"id":"0000000000000000001b","properties":{"class":3,"id":104}},{"type":"Feature","geometry":{"type":"Polygon","coordinates":[[[34.05454266044412,-1.5235990437551956],[34.055760048122664,-1.523322579235744],[34.05670532660225,-1.5233047361620076],[34.05713343492788,-1.5232021920777514],[34.05598294234247,-1.522354923850657],[34.054952933639385,-1.5227205759231732],[34.0546140419947,-1.5232556464316158],[34.05454266044412,-1.5235990437551956]]]},"id":"0000000000000000001c","properties":{"class":3,"id":105}},{"type":"Feature","geometry":{"type":"Polygon","coordinates":[[[34.2226106584927,-1.4959303126657877],[34.22274891511462,-1.4970005049820225],[34.223194812473324,-1.4970539739343893],[34.22334638483894,-1.4959124551328766],[34.22320821395749,-1.4944632837653633],[34.222624060064156,-1.4950340527032202],[34.2226106584927,-1.4959303126657877]]]},"id":"00000000000000000021","properties":{"class":3,"id":160}},{"type":"Feature","geometry":{"type":"Polygon","coordinates":[[[34.21500791269257,-1.5870564867533148],[34.21524865215173,-1.587747633580401],[34.21758077162912,-1.588920406264633],[34.21892302977023,-1.5889873073723202],[34.21912813291732,-1.5878457648366608],[34.21500791269257,-1.5870564867533148]]]},"id":"00000000000000000022","properties":{"class":3,"id":170}},{"type":"Feature","geometry":{"type":"Polygon","coordinates":[[[34.10730720720139,-1.5013480812324491],[34.107891344722425,-1.5022443680193243],[34.108885762665174,-1.5021730633068975],[34.11070505467458,-1.502070487133008],[34.11338050759619,-1.5019322662960826],[34.11465137098123,-1.4997205643629863],[34.11300149556884,-1.4998231025522109],[34.1096393184965,-1.4998587903835177],[34.107409800978914,-1.500170935845963],[34.10730720720139,-1.5013480812324491]]]},"id":"0000000000000000001d","properties":{"class":4,"id":150}},{"type":"Feature","geometry":{"type":"Polygon","coordinates":[[[34.13311207664014,-1.4945613495117576],[34.13383444077756,-1.4970852022060401],[34.13702710561733,-1.4957341284630041],[34.13956432938461,-1.494177883019897],[34.14059439557116,-1.493522419275865],[34.141281128133336,-1.4923139990764027],[34.14086640647264,-1.49134637613629],[34.13311207664014,-1.4945613495117576]]]},"id":"0000000000000000001e","properties":{"class":4,"id":151}},{"type":"Feature","geometry":{"type":"Polygon","coordinates":[[[34.23392782667898,-1.4790169400133386],[34.234355943368904,-1.47944945543357],[34.23492221105476,-1.4794985252555983],[34.235537578920095,-1.479601074764936],[34.235987992273955,-1.4795698644626483],[34.23621095071071,-1.4792755486538167],[34.2363134825709,-1.4787538756050855],[34.236103923945734,-1.4786334425735654],[34.2354528558389,-1.4788429976920427],[34.23492221105476,-1.4788608586471452],[34.23401255120209,-1.4784996889591326],[34.23392782667898,-1.4790169400133386]]]},"id":"0000000000000000001f","properties":{"class":4,"id":152}},{"type":"Feature","geometry":{"type":"Polygon","coordinates":[[[34.24091084309107,-1.4759892329269997],[34.24097766764275,-1.4764752283594813],[34.24183383159877,-1.476229973875091],[34.24238673820321,-1.476229992744079],[34.24297093289878,-1.4765777752422633],[34.24355062936935,-1.4769567972636635],[34.24458069223249,-1.4771262546399981],[34.24516478781547,-1.4770236910235568],[34.24512908754147,-1.4765733672601817],[34.244857137481034,-1.4762300156069328],[34.24441117829749,-1.4760560913507574],[34.243755760969265,-1.4759535067061085],[34.242658780567815,-1.4755076483435727],[34.24091084309107,-1.4759892329269997]]]},"id":"00000000000000000020","properties":{"class":4,"id":155}},{"type":"Feature","geometry":{"type":"Polygon","coordinates":[[[34.20059604561222,-1.595007085106896],[34.20069861817842,-1.5962154733214255],[34.20145666738442,-1.5963180466439326],[34.20231286927195,-1.5952835318841962],[34.20296383855251,-1.5941776790037119],[34.20402957528807,-1.5934865054896037],[34.205090887875194,-1.5932457226417096],[34.2039225949623,-1.5927953619611686],[34.202928206314596,-1.5930361699144435],[34.201523606173204,-1.5936247263981005],[34.20080119062754,-1.5944229522724294],[34.20059604561222,-1.595007085106896]]]},"id":"00000000000000000023","properties":{"class":4,"id":180}}]}